{"type":"FeatureCollection","features":[{"type":"Feature","properties":{"name":"Ukraine","code":"UA"},"geometry":{"type":"MultiPolygon","coordinates":[[[[38.213,47.091],[38.177,47.081],[37.827,47.097],[37.763,47.091],[37.543,47.074],[37.341,46.916],[37.219,46.918],[37.046,46.876],[36.931,46.826],[36.794,46.715],[36.69,46.763],[36.56,46.763],[36.431,46.732],[36.279,46.659],[36.193,46.645],[36.024,46.666],[35.826,46.624],[35.401,46.381],[35.257,46.204],[35.203,46.17],[35.131,46.126],[35.055,46.104],[35.016,46.105],[35.217,46.232],[35.279,46.279],[35.289,46.314],[35.293,46.371],[35.232,46.44],[35.063,46.267],[34.969,46.243],[34.85,46.19],[34.843,46.074],[34.857,45.987],[34.908,45.878],[35.001,45.734],[34.947,45.729],[34.8,45.791],[34.793,45.892],[34.688,45.977],[34.523,45.977],[34.451,45.967],[34.353,46.062],[34.224,46.102],[34.127,46.09],[34.026,46.107],[33.806,46.208],[33.659,46.22],[33.655,46.147],[33.594,46.097],[33.5,46.079],[33.428,46.057],[33.263,46.126],[33.201,46.177],[32.942,46.125],[32.798,46.131],[32.478,46.083],[32.33,46.13],[32.035,46.262],[31.927,46.288],[31.83,46.282],[31.779,46.324],[31.844,46.347],[31.916,46.348],[31.992,46.364],[32.013,46.387],[32.01,46.43],[31.855,46.463],[31.715,46.472],[31.625,46.51],[31.556,46.555],[31.715,46.555],[31.877,46.522],[32.132,46.51],[32.363,46.475],[32.42,46.519],[32.553,46.591],[32.579,46.616],[32.355,46.565],[32.129,46.597],[32.046,46.642],[31.974,46.71],[31.945,46.784],[31.963,46.855],[31.941,46.982],[31.866,47.095],[31.837,47.157],[31.758,47.213],[31.837,47.086],[31.866,47.003],[31.913,46.927],[31.902,46.722],[31.873,46.651],[31.779,46.631],[31.657,46.642],[31.531,46.664],[31.563,46.777],[31.499,46.739],[31.401,46.628],[31.319,46.612],[31.139,46.624],[30.797,46.552],[30.771,46.473],[30.721,46.366],[30.671,46.303],[30.656,46.267],[30.512,46.105],[30.494,46.09],[30.221,45.868],[30.185,45.85],[30.008,45.798],[29.9,45.753],[29.821,45.732],[29.684,45.755],[29.63,45.722],[29.601,45.682],[29.601,45.6],[29.67,45.541],[29.727,45.343],[29.706,45.26],[29.652,45.314],[29.569,45.371],[29.403,45.42],[29.223,45.402],[29.029,45.321],[28.896,45.289],[28.824,45.31],[28.78,45.31],[28.766,45.286],[28.77,45.267],[28.791,45.251],[28.788,45.241],[28.762,45.234],[28.453,45.293],[28.316,45.347],[28.212,45.451],[28.266,45.484],[28.309,45.498],[28.471,45.506],[28.5,45.517],[28.503,45.541],[28.514,45.572],[28.51,45.618],[28.492,45.666],[28.561,45.736],[28.669,45.795],[28.73,45.852],[28.737,45.937],[28.849,45.979],[28.946,46.05],[28.971,46.128],[29.007,46.177],[28.942,46.288],[28.932,46.362],[28.928,46.425],[28.957,46.458],[29.05,46.498],[29.148,46.527],[29.187,46.524],[29.202,46.505],[29.205,46.38],[29.223,46.376],[29.256,46.392],[29.306,46.466],[29.338,46.446],[29.392,46.437],[29.432,46.456],[29.457,46.454],[29.49,46.435],[29.554,46.407],[29.616,46.399],[29.666,46.416],[29.706,46.449],[29.752,46.437],[29.839,46.35],[29.878,46.361],[30.077,46.378],[30.109,46.402],[30.131,46.423],[29.925,46.539],[29.936,46.624],[29.943,46.723],[29.918,46.782],[29.878,46.829],[29.72,46.883],[29.598,46.939],[29.572,46.965],[29.569,46.996],[29.562,47.048],[29.515,47.091],[29.511,47.128],[29.54,47.185],[29.551,47.246],[29.54,47.27],[29.511,47.291],[29.457,47.293],[29.382,47.328],[29.335,47.376],[29.202,47.444],[29.158,47.456],[29.133,47.489],[29.122,47.531],[29.151,47.581],[29.187,47.659],[29.212,47.732],[29.212,47.775],[29.194,47.883],[29.126,47.965],[29.094,47.975],[29.036,47.953],[28.975,47.933],[28.924,47.951],[28.867,47.996],[28.773,48.119],[28.6,48.145],[28.532,48.15],[28.464,48.091],[28.442,48.109],[28.424,48.147],[28.388,48.163],[28.341,48.145],[28.327,48.161],[28.348,48.213],[28.291,48.239],[28.158,48.237],[28.089,48.256],[28.078,48.296],[28.039,48.321],[27.963,48.333],[27.891,48.366],[27.819,48.416],[27.715,48.449],[27.574,48.465],[27.564,48.47],[27.549,48.479],[27.459,48.444],[27.405,48.416],[27.337,48.433],[27.229,48.371],[27.009,48.367],[26.901,48.373],[26.847,48.387],[26.642,48.295],[26.62,48.26],[26.574,48.248],[26.444,48.23],[26.307,48.204],[26.278,48.114],[26.235,48.064],[26.163,47.992],[25.908,47.968],[25.688,47.932],[25.465,47.911],[25.17,47.822],[25.072,47.746],[24.979,47.723],[24.892,47.718],[24.838,47.762],[24.651,47.876],[24.579,47.932],[24.486,47.947],[24.381,47.939],[24.28,47.911],[24.176,47.906],[24.061,47.946],[24.046,47.94],[24.003,47.935],[23.708,47.982],[23.683,47.991],[23.668,47.992],[23.629,47.996],[23.409,47.991],[23.204,48.084],[23.139,48.088],[23.092,48.05],[23.056,48.006],[22.912,47.965],[22.876,47.947],[22.855,47.959],[22.848,47.998],[22.858,48.029],[22.837,48.06],[22.783,48.095],[22.768,48.109],[22.7,48.107],[22.682,48.104],[22.675,48.104],[22.581,48.135],[22.52,48.206],[22.423,48.244],[22.351,48.256],[22.318,48.286],[22.297,48.327],[22.272,48.359],[22.268,48.36],[22.254,48.407],[22.232,48.413],[22.228,48.414],[22.131,48.406],[22.142,48.569],[22.297,48.685],[22.333,48.746],[22.39,48.874],[22.434,48.933],[22.484,48.984],[22.524,49.031],[22.538,49.072],[22.581,49.077],[22.7,49.039],[22.808,49.02],[22.84,49.039],[22.851,49.064],[22.848,49.081],[22.761,49.136],[22.707,49.171],[22.704,49.192],[22.722,49.241],[22.732,49.294],[22.722,49.353],[22.66,49.484],[22.65,49.539],[22.707,49.607],[22.891,49.767],[22.952,49.826],[23.035,49.899],[23.265,50.072],[23.409,50.175],[23.506,50.23],[23.65,50.327],[23.712,50.378],[23.974,50.411],[24.003,50.458],[24.054,50.508],[24.09,50.53],[24.093,50.617],[24.046,50.723],[24.007,50.76],[23.978,50.786],[23.996,50.81],[24.025,50.817],[24.061,50.82],[24.104,50.845],[24.097,50.872],[23.985,50.94],[23.938,50.992],[23.863,51.126],[23.712,51.265],[23.665,51.31],[23.658,51.353],[23.679,51.395],[23.658,51.449],[23.604,51.518],[23.614,51.525],[23.607,51.61],[23.647,51.629],[23.708,51.642],[23.791,51.636],[23.863,51.624],[23.953,51.584],[23.978,51.591],[24.126,51.664],[24.28,51.775],[24.324,51.838],[24.363,51.867],[24.496,51.883],[24.612,51.89],[24.684,51.888],[24.867,51.898],[24.975,51.911],[25.065,51.93],[25.267,51.938],[25.58,51.924],[25.785,51.924],[25.926,51.914],[26.268,51.855],[26.394,51.845],[26.455,51.813],[26.566,51.801],[26.772,51.77],[26.952,51.754],[27.074,51.761],[27.142,51.753],[27.268,51.614],[27.297,51.598],[27.348,51.595],[27.452,51.607],[27.6,51.602],[27.69,51.572],[27.675,51.49],[27.7,51.478],[27.74,51.482],[27.79,51.529],[27.83,51.577],[27.859,51.593],[28.01,51.56],[28.078,51.565],[28.143,51.602],[28.183,51.609],[28.291,51.582],[28.424,51.563],[28.532,51.562],[28.6,51.543],[28.647,51.456],[28.69,51.438],[28.73,51.433],[28.795,51.51],[28.849,51.541],[28.928,51.562],[28.978,51.572],[29.014,51.598],[29.061,51.626],[29.101,51.628],[29.137,51.617],[29.173,51.581],[29.23,51.497],[29.299,51.412],[29.346,51.383],[29.468,51.409],[29.554,51.435],[29.706,51.44],[29.907,51.458],[30.062,51.482],[30.159,51.478],[30.221,51.451],[30.311,51.4],[30.332,51.326],[30.451,51.273],[30.545,51.265],[30.577,51.319],[30.631,51.355],[30.613,51.407],[30.602,51.471],[30.563,51.532],[30.534,51.596],[30.584,51.688],[30.638,51.77],[30.667,51.813],[30.757,51.895],[30.847,51.952],[30.98,52.046],[31.081,52.077],[31.167,52.063],[31.218,52.049],[31.347,52.105],[31.574,52.109],[31.765,52.102],[31.783,52.1],[31.877,52.07],[31.974,52.046],[32.042,52.044],[32.121,52.051],[32.219,52.082],[32.283,52.114],[32.363,52.272],[32.391,52.294],[32.435,52.306],[32.507,52.308],[32.647,52.279],[32.805,52.253],[32.899,52.256],[33.147,52.341],[33.288,52.353],[33.453,52.334],[33.612,52.332],[33.734,52.345],[33.821,52.315],[33.921,52.251],[34.015,52.155],[34.112,51.98],[34.397,51.78],[34.404,51.742],[34.379,51.716],[34.238,51.692],[34.119,51.68],[34.116,51.645],[34.148,51.609],[34.202,51.553],[34.209,51.484],[34.206,51.419],[34.231,51.364],[34.274,51.339],[34.281,51.312],[34.227,51.277],[34.213,51.256],[34.235,51.244],[34.49,51.237],[34.616,51.202],[34.713,51.173],[34.76,51.169],[34.868,51.188],[34.991,51.202],[35.063,51.204],[35.091,51.181],[35.117,51.121],[35.16,51.062],[35.199,51.044],[35.268,51.046],[35.311,51.044],[35.336,51.022],[35.307,50.987],[35.315,50.951],[35.347,50.904],[35.383,50.8],[35.419,50.768],[35.441,50.728],[35.441,50.682],[35.412,50.642],[35.39,50.61],[35.412,50.539],[35.487,50.459],[35.545,50.44],[35.592,50.369],[35.675,50.346],[35.797,50.405],[35.891,50.437],[36.009,50.419],[36.117,50.409],[36.189,50.367],[36.243,50.312],[36.305,50.28],[36.369,50.296],[36.499,50.28],[36.56,50.235],[36.618,50.209],[36.697,50.246],[36.758,50.293],[36.989,50.34],[37.133,50.352],[37.172,50.36],[37.255,50.395],[37.341,50.418],[37.424,50.411],[37.5,50.341],[37.583,50.293],[37.604,50.215],[37.705,50.109],[37.95,49.965],[38.047,49.919],[38.112,49.928],[38.148,49.94],[38.162,49.954],[38.177,50.025],[38.209,50.051],[38.259,50.053],[38.45,49.965],[38.551,49.954],[38.648,49.952],[38.778,49.885],[38.918,49.824],[39.026,49.819],[39.116,49.841],[39.174,49.855],[39.213,49.833],[39.246,49.782],[39.303,49.742],[39.368,49.73],[39.462,49.728],[39.627,49.65],[39.782,49.572],[39.876,49.567],[39.959,49.591],[40.031,49.597],[40.081,49.577],[40.095,49.543],[40.059,49.498],[40.059,49.432],[40.128,49.369],[40.128,49.307],[40.11,49.251],[40.07,49.201],[39.977,49.13],[39.89,49.064],[39.761,49.036],[39.685,49.008],[39.707,48.959],[39.753,48.914],[39.865,48.878],[39.987,48.852],[40.005,48.822],[39.984,48.807],[39.905,48.794],[39.793,48.808],[39.757,48.782],[39.703,48.739],[39.671,48.663],[39.645,48.591],[39.764,48.572],[39.836,48.543],[39.858,48.484],[39.883,48.419],[39.89,48.36],[39.851,48.333],[39.847,48.303],[39.865,48.288],[39.919,48.282],[39.959,48.268],[39.962,48.237],[39.887,48.168],[39.815,48.036],[39.775,47.965],[39.779,47.888],[39.735,47.845],[39.66,47.841],[39.39,47.834],[39.159,47.838],[39.059,47.848],[38.9,47.855],[38.821,47.836],[38.72,47.715],[38.641,47.666],[38.511,47.623],[38.367,47.611],[38.288,47.558],[38.259,47.48],[38.256,47.409],[38.245,47.374],[38.213,47.343],[38.202,47.321],[38.209,47.296],[38.241,47.288],[38.281,47.277],[38.281,47.26],[38.267,47.237],[38.22,47.213],[38.202,47.175],[38.205,47.135],[38.213,47.091]]],[[[32.013,46.204],[32.15,46.154],[32.01,46.168],[31.7,46.215],[31.563,46.258],[31.527,46.307],[31.509,46.373],[31.585,46.303],[31.639,46.272],[32.013,46.204]]],[[[33.594,46.097],[33.655,46.147],[33.659,46.22],[33.806,46.208],[34.026,46.107],[34.127,46.09],[34.224,46.102],[34.353,46.062],[34.451,45.967],[34.523,45.977],[34.688,45.977],[34.793,45.892],[34.8,45.791],[34.947,45.729],[35.001,45.734],[35.023,45.701],[35.261,45.447],[35.372,45.354],[35.459,45.316],[35.559,45.31],[35.75,45.39],[35.833,45.402],[36.013,45.371],[36.078,45.425],[36.171,45.453],[36.29,45.456],[36.427,45.434],[36.575,45.394],[36.513,45.303],[36.452,45.232],[36.427,45.154],[36.395,45.066],[36.229,45.026],[36.056,45.031],[35.869,45.005],[35.804,45.04],[35.761,45.071],[35.678,45.102],[35.57,45.119],[35.473,45.099],[35.358,44.979],[35.156,44.897],[35.088,44.803],[34.886,44.824],[34.717,44.807],[34.469,44.722],[34.281,44.538],[34.076,44.423],[33.911,44.387],[33.756,44.399],[33.655,44.434],[33.45,44.553],[33.464,44.597],[33.493,44.619],[33.529,44.68],[33.612,44.908],[33.601,44.982],[33.554,45.097],[33.392,45.187],[33.263,45.171],[33.187,45.194],[32.917,45.349],[32.773,45.359],[32.611,45.328],[32.553,45.35],[32.507,45.404],[32.827,45.593],[33.144,45.75],[33.281,45.765],[33.468,45.838],[33.666,45.947],[33.637,46.032],[33.594,46.097]]]]}},{"type":"Feature","properties":{"name":"Turkey","code":"TR"},"geometry":{"type":"MultiPolygon","coordinates":[[[[25.969,40.137],[25.738,40.106],[25.67,40.135],[25.742,40.196],[25.875,40.234],[25.918,40.238],[25.976,40.179],[25.969,40.137]]],[[[41.51,41.517],[41.575,41.498],[41.701,41.472],[41.78,41.441],[41.823,41.432],[41.924,41.496],[42.079,41.495],[42.212,41.486],[42.281,41.475],[42.363,41.455],[42.468,41.439],[42.507,41.47],[42.569,41.559],[42.59,41.571],[42.608,41.58],[42.684,41.587],[42.756,41.58],[42.788,41.564],[42.821,41.493],[42.907,41.467],[43.058,41.352],[43.148,41.307],[43.17,41.288],[43.141,41.265],[43.152,41.236],[43.206,41.199],[43.278,41.186],[43.361,41.191],[43.404,41.177],[43.433,41.156],[43.44,41.127],[43.44,41.107],[43.454,41.064],[43.519,41.005],[43.591,40.969],[43.631,40.929],[43.695,40.795],[43.724,40.72],[43.713,40.647],[43.667,40.574],[43.569,40.482],[43.595,40.444],[43.616,40.394],[43.609,40.356],[43.677,40.239],[43.71,40.167],[43.685,40.149],[43.667,40.127],[43.793,40.071],[43.94,40.022],[44.005,40.014],[44.178,40.036],[44.289,40.04],[44.401,39.996],[44.559,39.887],[44.732,39.746],[44.768,39.703],[44.783,39.684],[44.819,39.651],[44.783,39.651],[44.725,39.682],[44.588,39.769],[44.516,39.731],[44.455,39.667],[44.39,39.422],[44.336,39.396],[44.239,39.397],[44.124,39.404],[44.045,39.392],[44.023,39.377],[44.034,39.351],[44.059,39.311],[44.073,39.26],[44.081,39.219],[44.12,39.18],[44.178,39.144],[44.181,39.108],[44.171,39.055],[44.16,39.017],[44.145,38.995],[44.171,38.934],[44.232,38.863],[44.271,38.837],[44.257,38.701],[44.279,38.641],[44.297,38.557],[44.289,38.42],[44.3,38.387],[44.318,38.375],[44.376,38.37],[44.43,38.358],[44.451,38.335],[44.448,38.318],[44.379,38.255],[44.372,38.21],[44.351,38.146],[44.329,38.109],[44.268,38.038],[44.228,37.967],[44.21,37.908],[44.225,37.88],[44.336,37.872],[44.397,37.83],[44.559,37.745],[44.588,37.71],[44.545,37.658],[44.545,37.637],[44.567,37.609],[44.577,37.561],[44.574,37.507],[44.574,37.436],[44.603,37.424],[44.714,37.358],[44.793,37.29],[44.797,37.269],[44.757,37.217],[44.768,37.156],[44.765,37.142],[44.732,37.165],[44.671,37.174],[44.606,37.175],[44.567,37.158],[44.495,37.111],[44.401,37.059],[44.325,37.01],[44.282,36.978],[44.246,36.983],[44.217,37.012],[44.203,37.052],[44.207,37.203],[44.192,37.25],[44.156,37.283],[44.113,37.302],[44.066,37.313],[44.012,37.314],[43.94,37.269],[43.836,37.224],[43.677,37.227],[43.569,37.236],[43.515,37.245],[43.307,37.314],[43.263,37.316],[43.184,37.346],[43.094,37.368],[42.936,37.325],[42.867,37.335],[42.774,37.372],[42.741,37.361],[42.637,37.25],[42.457,37.129],[42.36,37.109],[42.313,37.229],[42.27,37.276],[42.248,37.283],[42.201,37.297],[42.169,37.288],[42.061,37.207],[41.888,37.156],[41.744,37.127],[41.514,37.089],[41.341,37.071],[41.265,37.07],[41.103,37.085],[40.959,37.109],[40.815,37.108],[40.707,37.097],[40.452,37.009],[40.016,36.826],[39.685,36.738],[39.501,36.701],[39.357,36.682],[39.109,36.681],[38.907,36.695],[38.767,36.693],[38.688,36.715],[38.58,36.788],[38.443,36.863],[38.385,36.879],[38.306,36.894],[38.191,36.901],[37.907,36.795],[37.817,36.766],[37.719,36.743],[37.525,36.679],[37.435,36.642],[37.327,36.646],[37.187,36.656],[37.068,36.653],[36.985,36.703],[36.942,36.759],[36.776,36.793],[36.657,36.802],[36.629,36.778],[36.596,36.701],[36.546,36.507],[36.539,36.457],[36.643,36.264],[36.636,36.234],[36.564,36.224],[36.477,36.221],[36.42,36.203],[36.377,36.172],[36.348,36.004],[36.251,35.972],[36.2,35.938],[36.153,35.833],[36.128,35.832],[35.966,35.91],[35.894,35.917],[35.955,35.998],[35.887,36.16],[35.811,36.309],[35.883,36.406],[36.031,36.523],[36.189,36.66],[36.189,36.743],[36.179,36.807],[36.135,36.851],[36.049,36.91],[35.905,36.847],[35.801,36.778],[35.736,36.764],[35.66,36.724],[35.624,36.653],[35.538,36.597],[35.394,36.575],[35.178,36.636],[34.944,36.726],[34.811,36.799],[34.703,36.816],[34.602,36.785],[34.299,36.604],[34.022,36.34],[33.954,36.295],[33.695,36.182],[33.522,36.144],[33.443,36.153],[33.101,36.103],[32.928,36.096],[32.795,36.037],[32.535,36.101],[32.377,36.184],[32.283,36.267],[32.132,36.45],[32.021,36.535],[31.779,36.613],[31.351,36.8],[31.239,36.821],[30.951,36.849],[30.645,36.866],[30.581,36.797],[30.559,36.526],[30.505,36.451],[30.483,36.311],[30.447,36.269],[30.386,36.243],[30.296,36.288],[30.231,36.307],[30.084,36.25],[29.788,36.169],[29.688,36.156],[29.349,36.259],[29.223,36.325],[29.144,36.398],[29.115,36.521],[29.065,36.59],[29.058,36.639],[29.04,36.693],[28.971,36.715],[28.896,36.674],[28.816,36.675],[28.719,36.701],[28.485,36.804],[28.305,36.813],[28.197,36.686],[28.111,36.646],[28.021,36.634],[28.014,36.67],[28.086,36.752],[27.805,36.736],[27.657,36.675],[27.542,36.684],[27.456,36.712],[27.466,36.747],[27.556,36.759],[27.632,36.787],[27.934,36.809],[28.006,36.832],[28.082,36.92],[28.226,36.997],[28.244,37.03],[28.132,37.03],[27.668,37.007],[27.348,37.019],[27.312,36.983],[27.261,36.976],[27.25,37.08],[27.301,37.127],[27.369,37.122],[27.535,37.163],[27.52,37.248],[27.402,37.307],[27.376,37.34],[27.29,37.349],[27.218,37.389],[27.204,37.491],[27.15,37.604],[27.067,37.658],[27.078,37.688],[27.225,37.726],[27.254,37.882],[27.232,37.979],[27.16,37.986],[26.944,38.063],[26.88,38.056],[26.808,38.139],[26.682,38.198],[26.62,38.177],[26.581,38.149],[26.523,38.161],[26.43,38.214],[26.332,38.243],[26.289,38.278],[26.343,38.37],[26.415,38.368],[26.43,38.441],[26.372,38.562],[26.379,38.625],[26.44,38.641],[26.512,38.63],[26.588,38.557],[26.61,38.486],[26.595,38.418],[26.642,38.352],[26.674,38.335],[26.696,38.406],[26.728,38.418],[26.772,38.389],[26.862,38.373],[27.099,38.415],[27.142,38.451],[26.97,38.448],[26.908,38.481],[26.836,38.557],[26.797,38.627],[26.786,38.66],[26.764,38.71],[26.79,38.736],[26.908,38.776],[27.013,38.887],[26.97,38.918],[26.919,38.934],[26.865,38.924],[26.815,38.962],[26.808,39.014],[26.851,39.057],[26.854,39.116],[26.718,39.26],[26.682,39.292],[26.71,39.34],[26.815,39.418],[26.912,39.517],[26.898,39.55],[26.826,39.562],[26.484,39.521],[26.35,39.484],[26.113,39.467],[26.095,39.521],[26.102,39.569],[26.156,39.656],[26.149,39.873],[26.181,39.989],[26.314,40.024],[26.476,40.198],[26.739,40.401],[27.013,40.396],[27.121,40.453],[27.283,40.456],[27.315,40.415],[27.333,40.377],[27.477,40.319],[27.729,40.328],[27.79,40.351],[27.848,40.382],[27.733,40.481],[27.769,40.51],[27.873,40.514],[27.988,40.489],[27.996,40.467],[27.963,40.436],[27.927,40.38],[27.963,40.37],[28.287,40.403],[28.629,40.377],[28.737,40.39],[29.007,40.39],[29.054,40.423],[28.975,40.467],[28.896,40.482],[28.842,40.503],[28.788,40.535],[28.957,40.63],[29.054,40.649],[29.508,40.708],[29.846,40.738],[29.85,40.76],[29.799,40.76],[29.364,40.809],[29.259,40.847],[29.115,40.937],[29.083,40.963],[29.047,41.007],[29.068,41.102],[29.094,41.177],[29.148,41.22],[29.32,41.227],[29.918,41.151],[30.347,41.198],[30.811,41.085],[31.254,41.107],[31.347,41.158],[31.459,41.319],[32.085,41.59],[32.305,41.729],[32.543,41.807],[32.946,41.892],[33.284,42.005],[33.381,42.017],[34.191,41.963],[34.749,41.956],[35.005,42.064],[35.156,42.028],[35.142,41.989],[35.113,41.956],[35.124,41.89],[35.21,41.795],[35.297,41.729],[35.559,41.633],[35.919,41.713],[35.977,41.705],[36.053,41.682],[36.179,41.427],[36.279,41.337],[36.405,41.274],[36.51,41.262],[36.585,41.326],[36.647,41.352],[36.776,41.363],[36.992,41.276],[37.068,41.184],[37.431,41.114],[37.766,41.08],[37.91,41.002],[38.382,40.925],[38.558,40.937],[38.853,41.017],[39.426,41.106],[39.807,40.982],[39.912,40.967],[40.002,40.977],[40.128,40.943],[40.265,40.962],[40.686,41.107],[40.819,41.191],[40.959,41.212],[41.082,41.262],[41.413,41.423],[41.51,41.517]]],[[[28.014,41.969],[27.988,41.856],[28.05,41.729],[28.197,41.555],[28.345,41.467],[28.946,41.248],[29.058,41.229],[29.032,41.14],[28.996,41.061],[28.957,41.009],[28.78,40.974],[28.294,41.071],[28.172,41.081],[28.086,41.061],[27.924,40.991],[27.747,41.014],[27.499,40.974],[27.43,40.84],[27.258,40.687],[26.973,40.564],[26.772,40.498],[26.469,40.262],[26.329,40.123],[26.271,40.097],[26.203,40.075],[26.224,40.142],[26.26,40.203],[26.253,40.248],[26.253,40.314],[26.354,40.39],[26.448,40.444],[26.721,40.545],[26.793,40.627],[26.577,40.625],[26.361,40.606],[26.224,40.618],[26.106,40.611],[26.066,40.684],[26.037,40.727],[26.07,40.739],[26.109,40.75],[26.178,40.826],[26.242,40.884],[26.332,40.955],[26.354,40.996],[26.354,41.036],[26.332,41.064],[26.329,41.097],[26.325,41.144],[26.332,41.239],[26.538,41.344],[26.602,41.354],[26.624,41.403],[26.61,41.512],[26.581,41.6],[26.545,41.607],[26.494,41.633],[26.462,41.663],[26.412,41.696],[26.322,41.717],[26.318,41.745],[26.329,41.772],[26.361,41.802],[26.512,41.826],[26.53,41.847],[26.548,41.897],[26.581,41.948],[26.617,41.965],[26.678,41.963],[26.8,41.975],[26.883,41.991],[26.97,42.028],[27.013,42.059],[27.193,42.078],[27.243,42.094],[27.294,42.08],[27.362,42.026],[27.474,41.948],[27.535,41.922],[27.582,41.932],[27.661,41.962],[27.74,41.962],[27.801,41.956],[27.834,41.981],[27.88,41.986],[28.014,41.969]]]]}},{"type":"Feature","properties":{"name":"Slovakia","code":"SK"},"geometry":{"type":"MultiPolygon","coordinates":[[[[22.538,49.072],[22.524,49.031],[22.484,48.984],[22.434,48.933],[22.39,48.874],[22.333,48.746],[22.297,48.685],[22.142,48.569],[22.131,48.406],[22.11,48.393],[21.768,48.338],[21.721,48.347],[21.674,48.378],[21.649,48.402],[21.631,48.418],[21.602,48.463],[21.562,48.496],[21.505,48.522],[21.451,48.551],[21.382,48.553],[21.195,48.51],[21.066,48.506],[20.983,48.52],[20.868,48.546],[20.644,48.55],[20.49,48.527],[20.475,48.496],[20.335,48.296],[20.13,48.222],[19.95,48.147],[19.899,48.131],[19.809,48.156],[19.708,48.199],[19.626,48.223],[19.564,48.213],[19.496,48.163],[19.467,48.11],[19.266,48.072],[18.913,48.051],[18.79,48.001],[18.751,47.939],[18.747,47.893],[18.78,47.854],[18.74,47.807],[18.726,47.788],[18.477,47.777],[18.146,47.763],[17.948,47.767],[17.761,47.77],[17.635,47.81],[17.48,47.888],[17.318,47.991],[17.3,47.994],[17.278,48.005],[17.174,48.012],[17.149,48.006],[17.088,48.039],[17.07,48.083],[16.972,48.197],[16.864,48.387],[16.864,48.442],[16.904,48.503],[16.944,48.551],[16.947,48.588],[16.954,48.598],[16.987,48.676],[17.062,48.781],[17.134,48.841],[17.188,48.86],[17.296,48.843],[17.484,48.827],[17.624,48.841],[17.757,48.888],[17.829,48.928],[17.894,48.972],[17.912,48.999],[17.941,49.011],[18.052,49.036],[18.085,49.065],[18.099,49.119],[18.11,49.18],[18.132,49.225],[18.16,49.258],[18.366,49.336],[18.384,49.364],[18.416,49.392],[18.477,49.421],[18.535,49.465],[18.596,49.491],[18.675,49.489],[18.751,49.494],[18.808,49.51],[18.834,49.511],[18.938,49.498],[18.956,49.449],[18.967,49.397],[19.15,49.4],[19.251,49.511],[19.302,49.525],[19.388,49.564],[19.442,49.598],[19.478,49.576],[19.536,49.505],[19.593,49.447],[19.626,49.425],[19.629,49.407],[19.665,49.397],[19.73,49.39],[19.773,49.373],[19.788,49.319],[19.788,49.27],[19.766,49.235],[19.755,49.204],[19.802,49.192],[19.87,49.204],[19.917,49.222],[20.058,49.182],[20.108,49.27],[20.162,49.317],[20.238,49.338],[20.302,49.366],[20.364,49.385],[20.403,49.385],[20.421,49.392],[20.475,49.39],[20.533,49.381],[20.616,49.392],[20.727,49.369],[20.799,49.329],[20.868,49.315],[20.947,49.317],[21.001,49.34],[21.08,49.418],[21.138,49.418],[21.224,49.43],[21.35,49.428],[21.638,49.412],[21.714,49.381],[21.89,49.343],[21.969,49.3],[22.002,49.246],[22.02,49.209],[22.203,49.154],[22.473,49.081],[22.538,49.072]]]]}},{"type":"Feature","properties":{"name":"Russia","code":"RU"},"geometry":{"type":"MultiPolygon","coordinates":[[[[59.312,81.305],[59.096,81.292],[58.718,81.313],[58.61,81.338],[58.636,81.36],[58.88,81.391],[59.075,81.398],[59.28,81.365],[59.374,81.325],[59.312,81.305]]],[[[62,53.977],[61.987,53.954],[61.93,53.947],[61.598,53.996],[61.332,54.049],[61.231,54.02],[61.145,53.964],[61.112,53.883],[61.112,53.813],[61.112,53.754],[61.073,53.711],[60.986,53.657],[60.979,53.622],[61.098,53.582],[61.249,53.551],[61.336,53.565],[61.411,53.588],[61.472,53.581],[61.519,53.555],[61.534,53.523],[61.526,53.501],[61.498,53.485],[61.4,53.456],[61.31,53.466],[61.228,53.445],[61.184,53.407],[61.163,53.338],[61.199,53.287],[61.31,53.275],[61.436,53.239],[61.577,53.223],[61.66,53.228],[61.768,53.174],[62,53.113],[62,52.953],[61.973,52.944],[61.89,52.956],[61.721,52.97],[61.534,52.978],[61.4,52.996],[61.206,52.989],[61.048,52.973],[61.008,52.933],[60.943,52.86],[60.893,52.82],[60.803,52.744],[60.774,52.676],[60.821,52.57],[60.979,52.395],[60.994,52.338],[60.936,52.28],[60.828,52.233],[60.67,52.15],[60.5,52.147],[60.425,52.126],[60.234,52.025],[60.065,51.977],[60.029,51.933],[60.068,51.89],[60.281,51.834],[60.389,51.773],[60.418,51.704],[60.464,51.652],[60.63,51.617],[60.972,51.537],[60.994,51.529],[61.015,51.492],[61.364,51.442],[61.411,51.414],[61.555,51.324],[61.584,51.23],[61.512,51.136],[61.465,50.991],[61.39,50.86],[61.228,50.775],[60.943,50.695],[60.637,50.664],[60.508,50.669],[60.425,50.68],[60.288,50.704],[60.187,50.77],[60.112,50.834],[60.058,50.85],[60.004,50.839],[59.957,50.8],[59.888,50.69],[59.813,50.583],[59.752,50.544],[59.525,50.492],[59.5,50.511],[59.525,50.583],[59.496,50.605],[59.453,50.621],[59.172,50.649],[59.064,50.668],[58.985,50.676],[58.884,50.694],[58.816,50.737],[58.664,50.869],[58.549,50.971],[58.358,51.063],[58.189,51.083],[58.175,51.072],[58.045,51.069],[57.84,51.091],[57.829,51.089],[57.764,51.046],[57.718,50.98],[57.653,50.925],[57.559,50.895],[57.444,50.888],[57.311,50.947],[57.178,51.036],[57.012,51.065],[56.85,51.046],[56.789,51.032],[56.62,50.98],[56.566,51.004],[56.49,51.02],[56.324,50.937],[56.144,50.845],[56.105,50.777],[56.051,50.713],[55.928,50.654],[55.799,50.602],[55.687,50.583],[55.543,50.602],[55.36,50.666],[55.194,50.744],[55.014,50.869],[54.866,50.942],[54.726,50.997],[54.643,51.011],[54.575,50.991],[54.546,50.945],[54.564,50.911],[54.607,50.879],[54.64,50.78],[54.65,50.661],[54.636,50.591],[54.596,50.551],[54.557,50.536],[54.517,50.541],[54.47,50.584],[54.445,50.675],[54.42,50.78],[54.298,50.914],[54.19,50.996],[54.139,51.041],[54.042,51.116],[53.956,51.161],[53.776,51.214],[53.689,51.253],[53.534,51.4],[53.448,51.445],[53.336,51.482],[53.246,51.494],[53.228,51.485],[53.038,51.464],[52.904,51.466],[52.822,51.494],[52.735,51.497],[52.728,51.497],[52.634,51.48],[52.616,51.48],[52.57,51.482],[52.498,51.511],[52.422,51.595],[52.332,51.681],[52.22,51.709],[52.008,51.673],[51.774,51.555],[51.608,51.484],[51.475,51.482],[51.396,51.471],[51.346,51.475],[51.302,51.497],[51.292,51.541],[51.27,51.595],[51.162,51.647],[51.018,51.681],[50.881,51.72],[50.795,51.73],[50.755,51.675],[50.644,51.589],[50.518,51.506],[50.356,51.369],[50.309,51.322],[50.248,51.289],[50.104,51.254],[49.931,51.197],[49.823,51.131],[49.668,51.102],[49.499,51.084],[49.423,51.027],[49.38,50.935],[49.322,50.852],[49.059,50.727],[48.915,50.645],[48.807,50.602],[48.735,50.607],[48.656,50.619],[48.624,50.612],[48.667,50.55],[48.699,50.353],[48.75,50.228],[48.786,50.157],[48.818,50.1],[48.843,50.013],[48.811,49.963],[48.761,49.928],[48.599,49.874],[48.433,49.829],[48.336,49.859],[48.224,49.932],[48.181,49.97],[48.062,50.093],[47.85,50.282],[47.706,50.378],[47.598,50.414],[47.504,50.402],[47.429,50.359],[47.375,50.319],[47.328,50.274],[47.295,50.218],[47.299,50.14],[47.295,50.058],[47.249,50.001],[47.13,49.939],[46.993,49.853],[46.889,49.697],[46.824,49.503],[46.802,49.367],[46.853,49.303],[46.953,49.253],[47.018,49.201],[47.033,49.15],[47.015,49.098],[46.961,49.038],[46.853,48.97],[46.701,48.805],[46.608,48.574],[46.662,48.413],[46.853,48.324],[47.004,48.284],[47.065,48.232],[47.119,48.128],[47.112,48.02],[47.094,47.947],[47.13,47.876],[47.202,47.793],[47.292,47.741],[47.389,47.768],[47.483,47.803],[47.601,47.789],[47.936,47.762],[48.109,47.746],[48.167,47.709],[48.275,47.59],[48.411,47.456],[48.552,47.321],[48.602,47.262],[48.714,47.1],[48.833,46.954],[48.959,46.774],[48.951,46.725],[48.883,46.706],[48.775,46.71],[48.692,46.737],[48.645,46.758],[48.606,46.765],[48.559,46.756],[48.519,46.734],[48.501,46.699],[48.509,46.651],[48.541,46.605],[48.584,46.578],[48.609,46.567],[48.775,46.508],[48.959,46.442],[49.185,46.348],[49.232,46.336],[49.247,46.291],[49.124,46.282],[49.11,46.229],[49.081,46.189],[48.811,46.1],[48.743,46.1],[48.685,46.086],[48.689,46.029],[48.703,45.977],[48.75,45.921],[48.728,45.897],[48.689,45.888],[48.638,45.906],[48.588,45.935],[48.537,45.942],[48.487,45.935],[48.257,45.777],[48.159,45.737],[48.051,45.722],[47.832,45.663],[47.763,45.666],[47.702,45.687],[47.648,45.658],[47.634,45.585],[47.573,45.635],[47.508,45.675],[47.479,45.687],[47.465,45.68],[47.526,45.602],[47.529,45.531],[47.515,45.491],[47.49,45.454],[47.454,45.434],[47.414,45.421],[47.393,45.295],[47.349,45.218],[47.295,45.149],[47.22,45.024],[47.162,44.97],[47.115,44.906],[47.083,44.817],[47.04,44.838],[47.004,44.876],[46.982,44.826],[46.957,44.783],[46.842,44.718],[46.755,44.656],[46.716,44.56],[46.709,44.503],[46.719,44.451],[46.752,44.421],[46.917,44.387],[47.022,44.343],[47.123,44.262],[47.231,44.192],[47.306,44.104],[47.36,43.993],[47.429,43.779],[47.461,43.555],[47.562,43.835],[47.648,43.885],[47.627,43.805],[47.569,43.685],[47.508,43.51],[47.49,43.382],[47.511,43.271],[47.511,43.218],[47.465,43.034],[47.49,43],[47.529,42.967],[47.634,42.904],[47.709,42.81],[47.727,42.68],[47.771,42.646],[47.821,42.614],[48.08,42.354],[48.228,42.18],[48.303,42.08],[48.383,41.953],[48.426,41.923],[48.476,41.904],[48.573,41.845],[48.519,41.779],[48.429,41.663],[48.39,41.602],[48.3,41.545],[48.141,41.484],[48.055,41.458],[47.965,41.333],[47.861,41.213],[47.792,41.199],[47.591,41.219],[47.522,41.229],[47.317,41.283],[47.259,41.316],[47.205,41.456],[47.144,41.515],[47.065,41.555],[47.011,41.588],[46.989,41.621],[46.932,41.67],[46.824,41.743],[46.748,41.812],[46.691,41.831],[46.615,41.807],[46.572,41.8],[46.554,41.812],[46.539,41.87],[46.431,41.89],[46.41,41.904],[46.269,41.96],[46.212,41.989],[46.161,41.993],[46.05,42.008],[45.953,42.036],[45.909,42.071],[45.845,42.109],[45.726,42.159],[45.639,42.205],[45.636,42.234],[45.69,42.357],[45.726,42.475],[45.704,42.498],[45.654,42.517],[45.564,42.536],[45.344,42.529],[45.207,42.649],[45.161,42.675],[45.071,42.694],[44.945,42.731],[44.873,42.757],[44.851,42.746],[44.772,42.616],[44.693,42.71],[44.646,42.734],[44.577,42.748],[44.505,42.748],[44.329,42.703],[44.199,42.654],[44.102,42.616],[44.005,42.595],[43.958,42.566],[43.825,42.571],[43.76,42.593],[43.739,42.618],[43.749,42.658],[43.796,42.703],[43.8,42.727],[43.782,42.746],[43.623,42.807],[43.559,42.845],[43.346,42.897],[43.091,42.989],[43.001,43.05],[42.99,43.092],[42.889,43.133],[42.759,43.17],[42.659,43.159],[42.565,43.156],[42.417,43.224],[42.281,43.229],[42.122,43.208],[42.086,43.199],[42.05,43.191],[41.582,43.218],[41.46,43.276],[41.359,43.333],[41.082,43.375],[40.941,43.418],[40.801,43.481],[40.65,43.534],[40.52,43.512],[40.344,43.543],[40.149,43.569],[40.085,43.553],[40.023,43.484],[39.977,43.42],[39.872,43.474],[39.516,43.727],[39.329,43.897],[38.717,44.288],[38.637,44.317],[38.313,44.375],[38.18,44.42],[37.853,44.699],[37.705,44.661],[37.572,44.671],[37.496,44.696],[37.41,44.736],[37.352,44.788],[37.284,44.906],[37.205,44.972],[36.945,45.069],[36.65,45.126],[36.629,45.151],[36.618,45.185],[36.873,45.251],[36.942,45.289],[36.812,45.34],[36.762,45.349],[36.722,45.371],[36.794,45.409],[36.866,45.427],[36.978,45.383],[37.104,45.303],[37.215,45.272],[37.266,45.31],[37.647,45.378],[37.673,45.43],[37.673,45.489],[37.633,45.486],[37.611,45.5],[37.611,45.566],[37.669,45.654],[37.842,45.8],[37.932,46.001],[38.015,46.048],[38.072,46.017],[38.069,45.97],[38.079,45.935],[38.133,46.003],[38.184,46.095],[38.313,46.095],[38.4,46.079],[38.493,46.09],[38.317,46.243],[38.079,46.394],[37.979,46.383],[37.914,46.406],[37.809,46.532],[37.766,46.637],[37.867,46.633],[37.968,46.618],[38.159,46.69],[38.231,46.701],[38.342,46.678],[38.501,46.664],[38.49,46.732],[38.439,46.814],[38.63,46.873],[38.799,46.906],[39.127,47.024],[39.271,47.045],[39.289,47.071],[39.293,47.105],[39.246,47.199],[39.195,47.269],[39.023,47.272],[38.929,47.177],[38.67,47.144],[38.551,47.15],[38.645,47.213],[38.735,47.236],[38.763,47.262],[38.576,47.239],[38.486,47.175],[38.213,47.091],[38.205,47.135],[38.202,47.175],[38.22,47.213],[38.267,47.237],[38.281,47.26],[38.281,47.277],[38.241,47.288],[38.209,47.296],[38.202,47.321],[38.213,47.343],[38.245,47.374],[38.256,47.409],[38.259,47.48],[38.288,47.558],[38.367,47.611],[38.511,47.623],[38.641,47.666],[38.72,47.715],[38.821,47.836],[38.9,47.855],[39.059,47.848],[39.159,47.838],[39.39,47.834],[39.66,47.841],[39.735,47.845],[39.779,47.888],[39.775,47.965],[39.815,48.036],[39.887,48.168],[39.962,48.237],[39.959,48.268],[39.919,48.282],[39.865,48.288],[39.847,48.303],[39.851,48.333],[39.89,48.36],[39.883,48.419],[39.858,48.484],[39.836,48.543],[39.764,48.572],[39.645,48.591],[39.671,48.663],[39.703,48.739],[39.757,48.782],[39.793,48.808],[39.905,48.794],[39.984,48.807],[40.005,48.822],[39.987,48.852],[39.865,48.878],[39.753,48.914],[39.707,48.959],[39.685,49.008],[39.761,49.036],[39.89,49.064],[39.977,49.13],[40.07,49.201],[40.11,49.251],[40.128,49.307],[40.128,49.369],[40.059,49.432],[40.059,49.498],[40.095,49.543],[40.081,49.577],[40.031,49.597],[39.959,49.591],[39.876,49.567],[39.782,49.572],[39.627,49.65],[39.462,49.728],[39.368,49.73],[39.303,49.742],[39.246,49.782],[39.213,49.833],[39.174,49.855],[39.116,49.841],[39.026,49.819],[38.918,49.824],[38.778,49.885],[38.648,49.952],[38.551,49.954],[38.45,49.965],[38.259,50.053],[38.209,50.051],[38.177,50.025],[38.162,49.954],[38.148,49.94],[38.112,49.928],[38.047,49.919],[37.95,49.965],[37.705,50.109],[37.604,50.215],[37.583,50.293],[37.5,50.341],[37.424,50.411],[37.341,50.418],[37.255,50.395],[37.172,50.36],[37.133,50.352],[36.989,50.34],[36.758,50.293],[36.697,50.246],[36.618,50.209],[36.56,50.235],[36.499,50.28],[36.369,50.296],[36.305,50.28],[36.243,50.312],[36.189,50.367],[36.117,50.409],[36.009,50.419],[35.891,50.437],[35.797,50.405],[35.675,50.346],[35.592,50.369],[35.545,50.44],[35.487,50.459],[35.412,50.539],[35.39,50.61],[35.412,50.642],[35.441,50.682],[35.441,50.728],[35.419,50.768],[35.383,50.8],[35.347,50.904],[35.315,50.951],[35.307,50.987],[35.336,51.022],[35.311,51.044],[35.268,51.046],[35.199,51.044],[35.16,51.062],[35.117,51.121],[35.091,51.181],[35.063,51.204],[34.991,51.202],[34.868,51.188],[34.76,51.169],[34.713,51.173],[34.616,51.202],[34.49,51.237],[34.235,51.244],[34.213,51.256],[34.227,51.277],[34.281,51.312],[34.274,51.339],[34.231,51.364],[34.206,51.419],[34.209,51.484],[34.202,51.553],[34.148,51.609],[34.116,51.645],[34.119,51.68],[34.238,51.692],[34.379,51.716],[34.404,51.742],[34.397,51.78],[34.112,51.98],[34.015,52.155],[33.921,52.251],[33.821,52.315],[33.734,52.345],[33.612,52.332],[33.453,52.334],[33.288,52.353],[33.147,52.341],[32.899,52.256],[32.805,52.253],[32.647,52.279],[32.507,52.308],[32.435,52.306],[32.391,52.294],[32.363,52.272],[32.283,52.114],[32.219,52.082],[32.121,52.051],[32.042,52.044],[31.974,52.046],[31.877,52.07],[31.783,52.1],[31.765,52.102],[31.758,52.126],[31.689,52.221],[31.65,52.263],[31.603,52.286],[31.578,52.312],[31.578,52.426],[31.585,52.532],[31.617,52.546],[31.527,52.633],[31.52,52.699],[31.563,52.732],[31.563,52.76],[31.535,52.798],[31.445,52.862],[31.355,52.933],[31.297,52.99],[31.257,53.016],[31.304,53.062],[31.365,53.14],[31.387,53.185],[31.419,53.195],[31.563,53.202],[31.668,53.2],[31.747,53.185],[31.776,53.147],[31.851,53.107],[32.057,53.089],[32.143,53.091],[32.251,53.128],[32.427,53.211],[32.471,53.27],[32.579,53.312],[32.643,53.329],[32.705,53.336],[32.712,53.371],[32.708,53.419],[32.687,53.449],[32.471,53.548],[32.442,53.579],[32.424,53.617],[32.453,53.654],[32.449,53.693],[32.201,53.782],[31.992,53.798],[31.823,53.792],[31.754,53.81],[31.783,53.855],[31.826,53.935],[31.837,54.001],[31.826,54.03],[31.794,54.056],[31.628,54.112],[31.405,54.195],[31.301,54.292],[31.247,54.391],[31.185,54.452],[31.074,54.492],[31.081,54.516],[31.157,54.61],[31.153,54.626],[31.121,54.648],[30.984,54.695],[30.8,54.784],[30.789,54.806],[30.804,54.86],[30.829,54.916],[30.869,54.94],[30.977,55.051],[30.977,55.087],[30.959,55.138],[30.876,55.223],[30.815,55.278],[30.811,55.306],[30.822,55.331],[30.861,55.36],[30.901,55.398],[30.908,55.525],[30.908,55.57],[30.883,55.596],[30.858,55.608],[30.8,55.601],[30.721,55.622],[30.663,55.655],[30.627,55.666],[30.588,55.7],[30.476,55.768],[30.455,55.787],[30.235,55.844],[30.044,55.836],[29.936,55.846],[29.882,55.832],[29.824,55.796],[29.745,55.77],[29.684,55.77],[29.63,55.751],[29.482,55.685],[29.414,55.725],[29.353,55.784],[29.374,55.834],[29.4,55.881],[29.396,55.912],[29.374,55.938],[29.284,55.968],[29.086,56.021],[29.032,56.021],[28.946,56.002],[28.795,55.943],[28.741,55.955],[28.69,56.002],[28.636,56.061],[28.564,56.093],[28.406,56.089],[28.392,56.087],[28.316,56.053],[28.284,56.056],[28.147,56.143],[28.172,56.19],[28.201,56.261],[28.19,56.315],[28.168,56.386],[28.111,56.511],[28.104,56.546],[28.006,56.6],[27.992,56.645],[27.942,56.704],[27.891,56.742],[27.88,56.823],[27.848,56.853],[27.805,56.867],[27.657,56.843],[27.639,56.846],[27.711,56.978],[27.718,57.054],[27.762,57.136],[27.816,57.167],[27.83,57.195],[27.837,57.247],[27.83,57.294],[27.798,57.317],[27.672,57.369],[27.538,57.429],[27.51,57.507],[27.47,57.525],[27.351,57.528],[27.355,57.551],[27.373,57.613],[27.402,57.667],[27.492,57.724],[27.513,57.764],[27.542,57.799],[27.754,57.841],[27.776,57.856],[27.78,57.87],[27.769,57.884],[27.722,57.905],[27.672,57.935],[27.643,58.014],[27.571,58.138],[27.502,58.221],[27.488,58.27],[27.506,58.327],[27.531,58.381],[27.531,58.435],[27.427,58.733],[27.434,58.787],[27.463,58.841],[27.513,58.886],[27.621,58.945],[27.758,59.053],[27.848,59.193],[27.898,59.278],[27.938,59.297],[28.017,59.303],[28.046,59.329],[28.06,59.342],[28.129,59.358],[28.15,59.374],[28.132,59.403],[28.064,59.454],[28.014,59.485],[28.064,59.554],[28.046,59.648],[28.014,59.724],[28.057,59.782],[28.132,59.787],[28.212,59.724],[28.334,59.693],[28.424,59.735],[28.453,59.815],[28.518,59.849],[28.604,59.818],[28.748,59.806],[28.867,59.811],[28.946,59.829],[28.982,59.855],[29.014,59.901],[29.079,59.96],[29.148,60],[29.67,59.955],[30.123,59.874],[30.156,59.905],[30.174,59.957],[30.059,60.002],[29.976,60.026],[29.871,60.12],[29.72,60.195],[29.569,60.202],[29.371,60.176],[29.068,60.191],[28.813,60.332],[28.644,60.375],[28.521,60.483],[28.492,60.54],[28.622,60.492],[28.64,60.542],[28.651,60.611],[28.579,60.653],[28.514,60.677],[28.179,60.572],[27.798,60.537],[28.15,60.745],[28.406,60.896],[28.456,60.92],[28.568,60.96],[28.662,61.002],[28.737,61.059],[28.993,61.169],[29.252,61.288],[29.493,61.445],[29.58,61.493],[29.691,61.545],[29.932,61.712],[30.012,61.757],[30.307,61.966],[30.48,62.068],[30.566,62.127],[30.937,62.323],[31.185,62.481],[31.286,62.568],[31.383,62.691],[31.437,62.776],[31.535,62.886],[31.538,62.922],[31.509,62.955],[31.437,63.007],[31.337,63.068],[31.247,63.143],[31.182,63.209],[30.977,63.301],[30.656,63.417],[30.419,63.504],[30.055,63.689],[29.99,63.735],[30.005,63.747],[30.21,63.804],[30.415,63.948],[30.505,64.021],[30.527,64.077],[30.527,64.141],[30.512,64.2],[30.487,64.236],[30.39,64.283],[30.109,64.366],[30.041,64.443],[29.986,64.524],[29.986,64.557],[30.12,64.644],[30.127,64.688],[30.109,64.733],[30.073,64.766],[29.785,64.804],[29.702,64.846],[29.637,64.912],[29.605,64.969],[29.601,65.002],[29.623,65.04],[29.72,65.08],[29.81,65.108],[29.828,65.146],[29.824,65.186],[29.81,65.205],[29.63,65.224],[29.612,65.234],[29.608,65.248],[29.616,65.266],[29.716,65.337],[29.727,65.474],[29.821,65.569],[29.716,65.625],[29.724,65.634],[29.882,65.663],[30.03,65.67],[30.095,65.682],[30.102,65.726],[30.087,65.786],[29.936,66.023],[29.904,66.09],[29.803,66.177],[29.72,66.234],[29.67,66.276],[29.59,66.358],[29.544,66.439],[29.464,66.533],[29.371,66.616],[29.292,66.696],[29.094,66.849],[29.065,66.892],[29.068,66.931],[29.086,66.97],[29.245,67.097],[29.389,67.201],[29.572,67.325],[29.749,67.427],[29.94,67.547],[29.986,67.668],[29.979,67.689],[29.821,67.753],[29.526,67.929],[29.342,68.062],[29.061,68.118],[28.687,68.189],[28.561,68.351],[28.471,68.488],[28.478,68.538],[28.752,68.771],[28.777,68.814],[28.773,68.84],[28.744,68.856],[28.705,68.866],[28.453,68.873],[28.413,68.904],[28.564,68.929],[28.69,68.962],[28.899,69.01],[28.964,69.022],[29.119,69.05],[29.169,69.071],[29.209,69.097],[29.353,69.271],[29.389,69.298],[29.832,69.361],[29.994,69.392],[30.087,69.432],[30.131,69.465],[30.163,69.502],[30.188,69.543],[30.195,69.581],[30.159,69.63],[30.181,69.635],[30.228,69.633],[30.379,69.585],[30.617,69.533],[30.789,69.529],[30.861,69.538],[30.897,69.561],[30.923,69.606],[30.923,69.653],[30.869,69.783],[31.049,69.769],[31.452,69.689],[31.545,69.698],[31.668,69.72],[31.79,69.816],[31.88,69.831],[31.999,69.811],[32.031,69.835],[31.97,69.915],[31.985,69.953],[32.391,69.87],[32.564,69.807],[32.942,69.752],[33.007,69.722],[33.014,69.67],[32.996,69.627],[32.913,69.602],[32.755,69.606],[32.175,69.673],[32.093,69.632],[32.161,69.597],[32.33,69.554],[32.377,69.479],[32.636,69.489],[32.885,69.462],[33,69.47],[33.021,69.446],[32.942,69.383],[32.978,69.368],[33.255,69.427],[33.385,69.444],[33.453,69.429],[33.464,69.378],[33.417,69.316],[33.414,69.267],[33.327,69.153],[33.198,69.116],[33.14,69.069],[33.335,69.099],[33.435,69.13],[33.626,69.29],[33.684,69.311],[34.231,69.312],[34.353,69.304],[34.865,69.227],[35.009,69.222],[35.174,69.231],[35.232,69.265],[35.289,69.276],[35.858,69.193],[36.618,69.003],[37.73,68.693],[38.357,68.415],[38.429,68.356],[38.655,68.321],[38.706,68.345],[38.832,68.325],[39.57,68.071],[39.822,68.059],[39.789,68.113],[39.746,68.163],[39.811,68.151],[39.897,68.114],[40.034,68.016],[40.207,67.943],[40.38,67.831],[40.527,67.79],[40.657,67.774],[40.765,67.743],[40.967,67.713],[41.06,67.444],[41.132,67.385],[41.132,67.267],[41.262,67.219],[41.359,67.21],[41.355,67.121],[41.276,66.915],[41.19,66.826],[40.52,66.446],[40.103,66.3],[39.289,66.132],[38.655,66.069],[38.396,66.064],[37.899,66.095],[37.629,66.13],[37.295,66.226],[36.985,66.273],[36.769,66.293],[36.373,66.302],[35.513,66.396],[35.365,66.429],[34.825,66.611],[34.609,66.559],[34.483,66.55],[34.397,66.613],[34.433,66.63],[34.451,66.651],[34.145,66.703],[33.893,66.707],[33.759,66.752],[33.594,66.785],[33.522,66.764],[33.482,66.764],[33.151,66.844],[33.003,66.908],[32.849,67.021],[32.885,67.061],[32.931,67.087],[32.399,67.153],[31.895,67.161],[31.985,67.13],[32.201,67.113],[32.341,67.068],[32.499,67.003],[32.463,66.917],[32.687,66.83],[32.856,66.746],[32.863,66.722],[32.928,66.705],[33.18,66.681],[33.223,66.604],[33.183,66.575],[33.216,66.531],[33.407,66.484],[33.518,66.472],[33.655,66.443],[33.594,66.385],[33.479,66.347],[33.36,66.33],[33.417,66.316],[33.565,66.321],[34.112,66.226],[34.4,66.128],[34.692,65.951],[34.785,65.865],[34.793,65.816],[34.778,65.769],[34.735,65.717],[34.717,65.663],[34.616,65.51],[34.544,65.457],[34.407,65.396],[34.537,65.278],[34.67,65.168],[34.803,64.986],[34.829,64.913],[34.832,64.8],[34.951,64.755],[34.904,64.738],[34.857,64.707],[34.868,64.561],[35.034,64.441],[35.286,64.363],[35.433,64.347],[35.646,64.379],[35.801,64.335],[36.146,64.189],[36.301,64.035],[36.366,64.004],[36.715,63.945],[36.974,63.91],[37.374,63.816],[37.442,63.813],[37.637,63.894],[37.968,63.95],[38.072,64.026],[38.061,64.09],[37.979,64.207],[37.953,64.32],[37.842,64.366],[37.741,64.398],[37.431,64.373],[37.291,64.379],[37.183,64.408],[37.039,64.49],[36.769,64.686],[36.625,64.75],[36.578,64.792],[36.528,64.847],[36.535,64.939],[36.654,64.936],[36.787,64.988],[36.884,65.172],[37.05,65.196],[37.14,65.195],[37.529,65.108],[38.011,64.879],[38.115,64.854],[38.227,64.851],[38.411,64.858],[38.443,64.826],[38.54,64.792],[38.612,64.787],[39.055,64.714],[39.566,64.571],[39.757,64.576],[39.833,64.656],[39.847,64.691],[40.059,64.771],[40.203,64.785],[40.409,64.755],[40.445,64.778],[40.376,64.896],[40.283,64.998],[40.142,65.063],[39.897,65.255],[39.797,65.349],[39.75,65.448],[39.782,65.535],[39.818,65.597],[40.329,65.752],[40.513,65.844],[40.693,65.964],[40.776,65.988],[41.075,66.021],[41.474,66.123],[41.78,66.259],[42.083,66.465],[42.212,66.519],[42.313,66.516],[42.45,66.483],[42.601,66.422],[42.806,66.411],[43.004,66.42],[43.235,66.415],[43.551,66.321],[43.602,66.292],[43.652,66.252],[43.551,66.174],[43.541,66.123],[43.623,66.148],[43.739,66.158],[43.843,66.142],[43.944,66.099],[44.016,66.05],[44.106,66.009],[44.131,66.064],[44.145,66.113],[44.099,66.234],[44.221,66.406],[44.315,66.481],[44.487,66.672],[44.437,66.795],[44.43,66.937],[44.405,67.003],[44.293,67.099],[44.073,67.167],[43.854,67.189],[43.782,67.255],[43.796,67.33],[43.857,67.439],[44.037,67.67],[44.225,67.996],[44.232,68.071],[44.214,68.113],[44.228,68.154],[44.203,68.253],[44.171,68.326],[43.404,68.609],[43.357,68.635],[43.332,68.673],[43.415,68.682],[43.472,68.68],[44.048,68.548],[44.174,68.542],[45.078,68.578],[45.521,68.547],[45.891,68.479],[46.158,68.292],[46.431,68.12],[46.683,67.97],[46.691,67.849],[46.428,67.825],[46.176,67.818],[45.528,67.757],[45.373,67.689],[44.941,67.477],[44.901,67.413],[44.941,67.351],[45.139,67.285],[45.564,67.186],[45.751,66.99],[45.884,66.891],[45.985,66.852],[46.082,66.844],[46.298,66.842],[46.449,66.819],[46.493,66.8],[46.554,66.819],[46.691,66.826],[47.497,66.931],[47.655,66.976],[47.709,67.045],[47.767,67.276],[47.839,67.356],[47.907,67.455],[47.882,67.516],[47.875,67.585],[48.278,67.651],[48.653,67.696],[48.833,67.682],[48.879,67.731],[48.764,67.826],[48.696,67.875],[48.753,67.896],[48.84,67.87],[48.955,67.854],[49.157,67.87],[49.931,68.066],[50.233,68.175],[50.413,68.219],[50.701,68.318],[50.838,68.351],[51.079,68.363],[51.335,68.403],[51.616,68.476],[51.994,68.538],[52.055,68.542],[52.13,68.533],[52.285,68.46],[52.228,68.418],[52.184,68.375],[52.26,68.351],[52.321,68.34],[52.397,68.352],[52.476,68.382],[52.67,68.427],[52.724,68.484],[52.649,68.507],[52.552,68.592],[52.436,68.611],[52.343,68.607],[52.685,68.731],[53.412,68.913],[53.801,68.996],[54.186,69.003],[54.492,68.993],[54.377,68.965],[53.873,68.927],[53.797,68.908],[53.797,68.885],[53.92,68.871],[53.97,68.844],[53.93,68.812],[53.891,68.802],[53.833,68.708],[53.758,68.634],[53.916,68.536],[53.93,68.436],[53.83,68.382],[53.689,68.403],[53.567,68.368],[53.344,68.344],[53.293,68.312],[53.261,68.267],[53.405,68.257],[53.516,68.26],[53.912,68.231],[53.966,68.227],[54.1,68.259],[54.233,68.265],[54.395,68.276],[54.478,68.295],[54.56,68.272],[54.719,68.184],[54.863,68.201],[54.924,68.373],[55.151,68.481],[55.417,68.568],[55.676,68.576],[55.925,68.637],[56.044,68.649],[56.274,68.625],[56.62,68.62],[56.911,68.568],[57.127,68.554],[57.444,68.642],[58.175,68.89],[58.236,68.833],[58.355,68.916],[58.92,69.003],[59.057,69.007],[59.06,68.972],[59.111,68.896],[59.219,68.849],[59.37,68.738],[59.298,68.708],[59.222,68.691],[59.111,68.616],[59.1,68.444],[59.312,68.401],[59.604,68.351],[59.726,68.352],[59.827,68.38],[59.86,68.396],[59.896,68.422],[59.924,68.472],[59.942,68.51],[59.867,68.606],[59.896,68.706],[60.162,68.699],[60.49,68.729],[60.637,68.786],[60.814,68.896],[60.932,68.986],[60.857,69.146],[60.666,69.111],[60.338,69.456],[60.169,69.59],[60.277,69.653],[60.558,69.692],[60.814,69.821],[60.911,69.847],[61.015,69.852],[61.771,69.764],[62,69.758],[62,53.977]]],[[[47.443,80.853],[47.9,80.813],[48.242,80.824],[48.347,80.819],[48.447,80.806],[48.548,80.779],[48.685,80.718],[48.685,80.633],[48.624,80.629],[48.044,80.667],[47.778,80.756],[47.706,80.765],[47.601,80.742],[47.511,80.688],[47.414,80.674],[47.303,80.607],[47.198,80.615],[47.144,80.608],[47.011,80.562],[46.676,80.562],[46.622,80.541],[46.514,80.475],[46.377,80.457],[46.14,80.447],[46.061,80.483],[46.025,80.541],[45.971,80.57],[45.639,80.537],[45.391,80.56],[45.15,80.598],[44.905,80.612],[45.125,80.652],[46.327,80.735],[46.799,80.756],[47.022,80.815],[47.353,80.853],[47.443,80.853]]],[[[50.28,80.928],[50.431,80.911],[50.802,80.914],[50.917,80.89],[51.454,80.744],[51.59,80.74],[51.702,80.688],[51.148,80.603],[50.96,80.541],[50.28,80.527],[49.844,80.497],[49.751,80.471],[49.794,80.426],[49.585,80.376],[48.897,80.369],[48.811,80.353],[48.678,80.299],[48.689,80.291],[48.923,80.277],[48.959,80.266],[48.991,80.242],[49.009,80.207],[48.977,80.162],[48.89,80.155],[48.797,80.161],[48.581,80.195],[48.555,80.183],[48.534,80.159],[48.465,80.11],[48.386,80.096],[48.167,80.133],[48.095,80.122],[48.026,80.1],[47.94,80.089],[47.738,80.082],[47.634,80.112],[47.724,80.152],[47.976,80.213],[47.893,80.239],[47.641,80.246],[47.443,80.23],[47.342,80.188],[47.249,80.18],[46.989,80.183],[46.845,80.237],[46.737,80.258],[46.644,80.301],[47.403,80.445],[47.655,80.501],[47.897,80.529],[48.21,80.544],[48.307,80.562],[48.404,80.569],[48.465,80.558],[48.624,80.508],[49.088,80.516],[49.185,80.558],[49.193,80.655],[49.146,80.713],[49.243,80.822],[49.509,80.865],[50.125,80.924],[50.28,80.928]]],[[[62,75.412],[61.616,75.319],[61.487,75.31],[61.357,75.315],[61.249,75.281],[61.148,75.223],[60.936,75.164],[60.828,75.111],[60.72,75.069],[60.655,75.055],[60.533,75.058],[60.475,75.055],[60.277,75.008],[60.241,74.97],[60.454,74.946],[60.5,74.904],[60.439,74.876],[60.302,74.836],[60.223,74.796],[60.079,74.756],[59.982,74.744],[59.748,74.746],[59.734,74.696],[59.773,74.664],[59.752,74.637],[59.672,74.611],[59.597,74.614],[59.24,74.692],[59.183,74.666],[59.158,74.611],[59.147,74.552],[59.1,74.508],[59.039,74.486],[58.927,74.463],[58.535,74.499],[58.502,74.465],[58.564,74.421],[58.646,74.328],[58.664,74.289],[58.618,74.227],[58.441,74.13],[57.768,74.013],[57.779,73.973],[57.854,73.897],[57.872,73.85],[57.844,73.805],[57.757,73.769],[57.656,73.769],[57.602,73.776],[57.448,73.826],[57.314,73.838],[57.289,73.814],[57.466,73.746],[57.541,73.658],[57.458,73.611],[57.134,73.505],[56.965,73.366],[56.634,73.305],[56.429,73.296],[56.227,73.314],[56.036,73.345],[55.55,73.357],[55.28,73.392],[55.007,73.454],[54.769,73.449],[54.568,73.418],[54.301,73.35],[54.132,73.48],[54.204,73.541],[53.84,73.697],[53.761,73.767],[53.851,73.8],[53.963,73.822],[54.175,73.885],[54.388,73.935],[54.607,73.951],[54.643,73.96],[54.733,74.034],[54.83,74.095],[54.92,74.13],[55.021,74.187],[55.342,74.42],[55.417,74.437],[56.08,74.482],[56.137,74.496],[55.946,74.543],[55.752,74.541],[55.662,74.557],[55.612,74.59],[55.583,74.628],[55.658,74.656],[55.914,74.796],[56.216,74.897],[56.497,74.958],[56.429,74.973],[56.339,75.013],[55.997,75.003],[55.864,75.058],[55.82,75.091],[55.81,75.124],[55.921,75.168],[56.036,75.194],[56.162,75.187],[56.288,75.164],[56.389,75.138],[56.486,75.097],[56.569,75.098],[56.875,75.244],[56.828,75.277],[56.81,75.328],[56.843,75.352],[56.99,75.374],[57.088,75.383],[57.3,75.373],[57.606,75.341],[57.631,75.357],[57.707,75.454],[57.782,75.506],[58.092,75.593],[58.074,75.619],[58.06,75.663],[58.42,75.72],[58.654,75.777],[58.88,75.855],[58.996,75.871],[59.111,75.874],[59.345,75.907],[59.78,75.946],[60.036,75.984],[60.119,76.067],[60.281,76.097],[60.605,76.109],[60.731,76.104],[60.803,76.069],[60.943,76.071],[60.997,76.09],[61.055,76.119],[61.037,76.17],[61.033,76.234],[61.156,76.274],[61.202,76.282],[61.57,76.298],[61.786,76.291],[62,76.268],[62,75.412]]],[[[55.32,73.309],[55.788,73.269],[56.137,73.257],[56.35,73.225],[56.429,73.201],[56.396,73.138],[56.335,73.114],[56.188,73.033],[56.166,72.984],[56.191,72.906],[56.17,72.849],[56.123,72.807],[56.083,72.79],[55.82,72.79],[55.723,72.767],[55.72,72.722],[55.702,72.671],[55.615,72.599],[55.442,72.576],[55.403,72.548],[55.417,72.501],[55.356,72.465],[55.36,72.409],[55.392,72.378],[55.399,72.314],[55.518,72.22],[55.496,72.182],[55.403,72.107],[55.374,72.015],[55.298,71.935],[55.471,71.869],[55.547,71.783],[55.615,71.691],[55.82,71.508],[56.044,71.345],[56.454,71.107],[56.893,70.927],[57.066,70.876],[57.484,70.793],[57.556,70.765],[57.624,70.729],[57.448,70.661],[57.264,70.637],[57.246,70.606],[57.145,70.588],[56.648,70.647],[56.623,70.656],[56.569,70.698],[56.512,70.729],[56.386,70.734],[56.26,70.715],[56.335,70.677],[56.418,70.665],[56.562,70.593],[56.501,70.566],[56.436,70.562],[56.141,70.658],[56.116,70.646],[56.087,70.618],[55.943,70.649],[55.907,70.626],[55.795,70.616],[55.705,70.642],[55.705,70.675],[55.687,70.692],[55.237,70.666],[55.05,70.666],[54.866,70.679],[54.647,70.741],[54.607,70.713],[54.6,70.68],[54.517,70.694],[54.334,70.745],[54.2,70.765],[53.722,70.814],[53.383,70.873],[53.47,70.901],[53.614,70.915],[53.617,70.951],[53.592,71.001],[53.588,71.052],[53.671,71.086],[53.858,71.071],[53.833,71.126],[53.923,71.137],[54.092,71.106],[54.157,71.125],[53.887,71.196],[53.592,71.297],[53.621,71.333],[53.516,71.342],[53.408,71.34],[53.318,71.399],[53.333,71.477],[53.412,71.531],[53.365,71.541],[52.908,71.494],[52.678,71.505],[52.418,71.536],[52.181,71.491],[51.94,71.475],[51.814,71.491],[51.691,71.526],[51.59,71.571],[51.511,71.649],[51.439,71.777],[51.428,71.826],[51.443,71.934],[51.482,71.981],[51.583,72.071],[51.652,72.099],[51.806,72.142],[51.886,72.152],[52.069,72.132],[52.253,72.13],[52.332,72.154],[52.408,72.198],[52.462,72.253],[52.588,72.284],[52.624,72.302],[52.663,72.336],[52.706,72.39],[52.714,72.437],[52.75,72.482],[52.865,72.55],[52.822,72.592],[52.84,72.619],[52.915,72.67],[52.685,72.682],[52.606,72.704],[52.53,72.737],[52.552,72.769],[52.58,72.791],[52.811,72.875],[52.912,72.901],[53.023,72.913],[53.135,72.913],[53.254,72.904],[53.369,72.916],[53.246,72.974],[53.236,73.012],[53.189,73.104],[53.2,73.147],[53.25,73.184],[53.358,73.225],[53.513,73.239],[53.635,73.26],[53.754,73.293],[53.866,73.298],[54.092,73.277],[54.204,73.281],[54.326,73.3],[54.676,73.369],[54.805,73.388],[54.942,73.383],[55.122,73.357],[55.32,73.309]]],[[[35.815,65.182],[35.847,65.142],[35.858,65.078],[35.826,65.037],[35.844,65.002],[35.779,64.978],[35.682,65.057],[35.621,65.059],[35.559,65.094],[35.531,65.151],[35.585,65.167],[35.61,65.156],[35.729,65.198],[35.815,65.182]]],[[[42.713,66.701],[42.677,66.687],[42.479,66.734],[42.461,66.771],[42.468,66.785],[42.547,66.795],[42.63,66.783],[42.691,66.736],[42.713,66.701]]],[[[52.904,71.364],[52.994,71.291],[53.074,71.238],[53.142,71.243],[53.192,71.215],[53.207,71.159],[53.07,71.066],[53.048,71.031],[53.106,71],[53.12,70.982],[53.023,70.968],[53.005,71.012],[52.951,71.054],[52.836,71.086],[52.789,71.114],[52.739,71.18],[52.548,71.25],[52.426,71.239],[52.289,71.271],[52.249,71.284],[52.238,71.324],[52.296,71.357],[52.512,71.385],[52.616,71.383],[52.728,71.356],[52.721,71.39],[52.732,71.404],[52.778,71.399],[52.904,71.364]]],[[[50.053,80.074],[49.97,80.06],[49.589,80.136],[49.556,80.159],[49.884,80.23],[50.251,80.22],[50.309,80.185],[50.32,80.173],[50.071,80.11],[50.053,80.074]]],[[[51.41,79.944],[51.436,79.931],[51.432,79.921],[51.076,79.931],[50.453,79.924],[50.093,79.98],[50.474,80.036],[50.676,80.048],[50.935,80.095],[51.256,80.049],[51.238,80.01],[51.241,79.99],[51.328,79.973],[51.41,79.944]]],[[[50.755,81.048],[50.615,81.041],[50.518,81.046],[50.413,81.084],[50.377,81.103],[50.37,81.122],[50.464,81.126],[50.507,81.145],[50.521,81.159],[50.593,81.169],[50.716,81.171],[50.878,81.15],[50.946,81.108],[50.788,81.072],[50.755,81.048]]],[[[55.478,80.273],[55.194,80.227],[55.05,80.228],[54.978,80.256],[55.093,80.296],[55.241,80.326],[55.352,80.317],[55.435,80.303],[55.478,80.273]]],[[[54.416,80.473],[54.276,80.421],[53.812,80.477],[53.851,80.504],[53.902,80.515],[53.902,80.543],[53.858,80.563],[53.876,80.605],[54.175,80.574],[54.204,80.562],[54.406,80.541],[54.438,80.499],[54.416,80.473]]],[[[59.69,79.956],[59.33,79.923],[59.204,79.933],[59.168,79.949],[59.1,79.964],[58.92,79.985],[58.945,80.043],[59.003,80.055],[59.543,80.119],[59.802,80.082],[59.91,79.994],[59.69,79.956]]],[[[58.621,81.042],[58.762,80.99],[58.816,80.933],[58.902,80.898],[58.931,80.832],[58.859,80.779],[58.643,80.768],[58.286,80.765],[57.937,80.792],[57.75,80.89],[57.404,80.916],[57.21,81.016],[57.412,81.046],[57.656,81.032],[58.049,81.119],[58.103,81.114],[58.189,81.095],[58.506,81.062],[58.621,81.042]]],[[[47.983,45.487],[47.969,45.47],[47.922,45.562],[47.918,45.618],[47.947,45.647],[47.987,45.553],[47.983,45.487]]],[[[50.266,69.186],[50.284,69.088],[50.222,69.048],[50.165,69.038],[50.14,69.099],[50.093,69.125],[49.92,69.054],[49.841,68.974],[49.625,68.859],[49.182,68.778],[48.912,68.743],[48.667,68.732],[48.44,68.805],[48.314,68.943],[48.293,68.984],[48.278,69.04],[48.282,69.097],[48.296,69.184],[48.321,69.269],[48.415,69.345],[48.631,69.436],[48.843,69.495],[48.955,69.508],[49.225,69.512],[49.995,69.309],[50.168,69.257],[50.266,69.186]]],[[[57.955,80.122],[57.8,80.103],[57.394,80.14],[57.332,80.159],[57.282,80.194],[57.214,80.329],[57.21,80.369],[57.185,80.397],[57.084,80.445],[57.012,80.468],[57.077,80.494],[57.523,80.475],[58.481,80.464],[58.97,80.416],[59.114,80.388],[59.255,80.343],[58.398,80.319],[58.283,80.298],[58.286,80.247],[58.254,80.202],[58.164,80.197],[57.955,80.122]]],[[[62,80.613],[61.768,80.602],[61.681,80.586],[61.598,80.536],[61.285,80.504],[61.051,80.419],[60.724,80.435],[60.277,80.494],[59.899,80.445],[59.651,80.431],[59.345,80.504],[59.305,80.522],[59.287,80.572],[59.305,80.617],[59.388,80.713],[59.496,80.766],[59.55,80.784],[59.593,80.817],[59.716,80.836],[60.094,80.848],[60.234,80.838],[60.277,80.801],[60.482,80.805],[60.821,80.827],[61.314,80.862],[61.598,80.893],[61.85,80.886],[62,80.875],[62,80.613]]],[[[61.141,80.95],[60.828,80.93],[60.32,80.956],[60.058,80.985],[60.079,80.999],[60.148,81.016],[60.587,81.088],[61.458,81.103],[61.566,81.051],[61.472,81.011],[61.141,80.95]]],[[[53.52,80.185],[52.858,80.173],[52.634,80.18],[52.606,80.192],[52.552,80.202],[52.343,80.213],[52.213,80.263],[52.271,80.277],[52.577,80.298],[52.681,80.319],[52.717,80.348],[52.854,80.402],[53.185,80.412],[53.329,80.402],[53.347,80.367],[53.488,80.324],[53.851,80.268],[53.779,80.228],[53.653,80.223],[53.52,80.185]]],[[[57.08,80.352],[57.124,80.317],[57.12,80.194],[57.073,80.14],[57.08,80.095],[56.987,80.072],[56.202,80.077],[55.813,80.088],[55.723,80.105],[55.943,80.164],[56.011,80.204],[55.99,80.32],[56.026,80.341],[56.656,80.331],[56.706,80.364],[56.944,80.365],[57.08,80.352]]],[[[57.811,81.546],[57.862,81.506],[58.016,81.483],[58.438,81.464],[58.564,81.419],[58.373,81.386],[57.858,81.369],[57.912,81.303],[58.016,81.254],[57.912,81.197],[57.768,81.169],[57.451,81.136],[57.16,81.178],[56.821,81.239],[56.67,81.199],[56.512,81.174],[56.364,81.178],[56.191,81.225],[55.716,81.188],[55.572,81.228],[55.468,81.312],[55.781,81.329],[56.155,81.303],[56.404,81.386],[56.72,81.423],[56.972,81.511],[57.091,81.541],[57.365,81.536],[57.455,81.542],[57.718,81.565],[57.811,81.546]]],[[[54.719,81.115],[55.471,81.02],[56.17,81.029],[56.472,80.999],[56.911,80.912],[57.566,80.82],[57.692,80.792],[57.581,80.756],[56.814,80.664],[56.317,80.633],[55.885,80.628],[55.712,80.638],[55.54,80.704],[55.118,80.753],[54.668,80.739],[54.622,80.765],[54.532,80.784],[54.377,80.787],[54.067,80.813],[54.046,80.872],[54.24,80.902],[54.366,80.904],[54.416,80.987],[54.632,81.114],[54.719,81.115]]],[[[58.297,81.716],[57.966,81.695],[57.919,81.711],[57.908,81.721],[57.944,81.747],[57.984,81.798],[58.135,81.827],[59.262,81.855],[59.41,81.825],[59.356,81.78],[59.356,81.759],[58.297,81.716]]],[[[60.45,69.936],[60.482,69.885],[60.479,69.793],[60.439,69.725],[60.328,69.715],[60.216,69.687],[60.025,69.717],[59.921,69.698],[59.813,69.696],[59.726,69.706],[59.636,69.72],[59.579,69.739],[59.582,69.791],[59.503,69.866],[59.381,69.89],[59.269,69.899],[59.143,69.922],[59.082,69.911],[59.003,69.883],[58.952,69.892],[58.679,70.052],[58.636,70.088],[58.607,70.13],[58.567,70.156],[58.474,70.267],[58.52,70.317],[58.614,70.35],[58.679,70.359],[58.794,70.434],[59.006,70.465],[59.05,70.46],[59.089,70.437],[59.309,70.361],[59.428,70.311],[59.528,70.25],[59.636,70.198],[59.957,70.109],[60.173,70.022],[60.392,69.962],[60.45,69.936]]],[[[20.958,55.278],[20.86,55.183],[20.594,54.982],[20.677,54.956],[20.774,54.947],[20.889,54.909],[20.997,54.903],[21.188,54.935],[21.224,55.108],[21.235,55.265],[21.296,55.265],[21.39,55.275],[21.447,55.235],[21.555,55.195],[21.681,55.16],[21.876,55.101],[22.074,55.063],[22.138,55.06],[22.347,55.065],[22.567,55.06],[22.628,54.971],[22.736,54.93],[22.826,54.87],[22.83,54.839],[22.711,54.633],[22.686,54.563],[22.678,54.494],[22.725,54.405],[22.765,54.357],[22.732,54.35],[22.167,54.36],[21.634,54.376],[21.141,54.391],[20.666,54.407],[20.209,54.421],[19.924,54.435],[19.644,54.447],[19.604,54.459],[19.759,54.544],[19.86,54.634],[19.942,54.751],[19.953,54.831],[19.975,54.921],[20.108,54.957],[20.396,54.952],[20.522,54.995],[20.68,55.103],[20.846,55.232],[20.9,55.287],[20.958,55.278]]]]}},{"type":"Feature","properties":{"name":"Romania","code":"RO"},"geometry":{"type":"MultiPolygon","coordinates":[[[[28.212,45.451],[28.316,45.347],[28.453,45.293],[28.762,45.234],[28.788,45.241],[28.791,45.251],[28.77,45.267],[28.766,45.286],[28.78,45.31],[28.824,45.31],[28.896,45.289],[29.029,45.321],[29.223,45.402],[29.403,45.42],[29.569,45.371],[29.652,45.314],[29.706,45.26],[29.688,45.194],[29.677,45.152],[29.634,44.98],[29.605,44.916],[29.558,44.843],[29.047,44.758],[29.079,44.798],[29.068,44.871],[29.047,44.925],[29.094,44.975],[28.982,44.993],[28.932,44.967],[28.892,44.918],[28.924,44.81],[28.87,44.75],[28.849,44.717],[28.845,44.637],[28.813,44.602],[28.806,44.566],[28.888,44.574],[28.852,44.507],[28.698,44.375],[28.644,44.296],[28.658,43.984],[28.59,43.798],[28.586,43.743],[28.424,43.741],[28.374,43.744],[28.222,43.772],[28.05,43.823],[27.949,43.918],[27.884,43.987],[27.74,43.956],[27.711,43.965],[27.672,43.998],[27.56,44.02],[27.427,44.02],[27.121,44.145],[27.088,44.168],[26.847,44.145],[26.491,44.085],[26.217,44.007],[25.933,43.871],[25.818,43.767],[25.684,43.711],[25.497,43.672],[25.159,43.687],[24.81,43.739],[24.432,43.795],[24.226,43.764],[23.949,43.786],[23.535,43.854],[23.226,43.875],[22.92,43.835],[22.869,43.864],[22.855,43.899],[22.869,43.948],[22.912,43.987],[22.984,44.017],[23.024,44.047],[23.028,44.078],[22.945,44.128],[22.776,44.196],[22.704,44.237],[22.689,44.248],[22.682,44.286],[22.65,44.316],[22.581,44.338],[22.531,44.378],[22.495,44.435],[22.502,44.489],[22.552,44.54],[22.621,44.562],[22.7,44.555],[22.736,44.571],[22.722,44.605],[22.642,44.651],[22.498,44.706],[22.351,44.677],[22.2,44.56],[22.092,44.541],[22.027,44.619],[21.908,44.666],[21.739,44.68],[21.634,44.71],[21.598,44.755],[21.523,44.79],[21.361,44.826],[21.357,44.862],[21.386,44.869],[21.444,44.873],[21.519,44.882],[21.534,44.901],[21.534,44.918],[21.472,44.942],[21.411,44.958],[21.379,44.974],[21.357,44.991],[21.354,45.008],[21.372,45.022],[21.397,45.022],[21.422,45.033],[21.433,45.076],[21.469,45.111],[21.49,45.123],[21.49,45.147],[21.465,45.171],[21.433,45.192],[21.382,45.204],[21.228,45.241],[21.148,45.291],[21.102,45.293],[21.022,45.321],[20.943,45.366],[20.871,45.428],[20.796,45.468],[20.774,45.484],[20.774,45.5],[20.785,45.517],[20.785,45.536],[20.767,45.597],[20.778,45.663],[20.774,45.722],[20.774,45.75],[20.76,45.758],[20.745,45.75],[20.727,45.737],[20.709,45.736],[20.652,45.779],[20.58,45.869],[20.533,45.899],[20.439,45.94],[20.36,45.975],[20.302,46.05],[20.241,46.109],[20.281,46.133],[20.508,46.166],[20.612,46.133],[20.662,46.145],[20.709,46.173],[20.734,46.194],[20.738,46.218],[20.76,46.246],[20.839,46.26],[21.04,46.243],[21.123,46.282],[21.152,46.305],[21.17,46.352],[21.192,46.392],[21.264,46.413],[21.264,46.447],[21.253,46.486],[21.296,46.572],[21.321,46.607],[21.361,46.621],[21.411,46.647],[21.498,46.704],[21.476,46.753],[21.494,46.789],[21.584,46.878],[21.652,46.963],[21.652,47.006],[21.663,47.045],[21.721,47.085],[21.786,47.138],[21.868,47.305],[21.901,47.333],[21.955,47.364],[21.994,47.395],[21.998,47.505],[22.038,47.536],[22.113,47.572],[22.185,47.63],[22.246,47.696],[22.29,47.729],[22.351,47.736],[22.419,47.763],[22.491,47.772],[22.563,47.76],[22.61,47.767],[22.678,47.8],[22.851,47.923],[22.876,47.947],[22.912,47.965],[23.056,48.006],[23.092,48.05],[23.139,48.088],[23.204,48.084],[23.409,47.991],[23.629,47.996],[23.668,47.992],[23.683,47.991],[23.708,47.982],[24.003,47.935],[24.046,47.94],[24.061,47.946],[24.176,47.906],[24.28,47.911],[24.381,47.939],[24.486,47.947],[24.579,47.932],[24.651,47.876],[24.838,47.762],[24.892,47.718],[24.979,47.723],[25.072,47.746],[25.17,47.822],[25.465,47.911],[25.688,47.932],[25.908,47.968],[26.163,47.992],[26.235,48.064],[26.278,48.114],[26.307,48.204],[26.444,48.23],[26.574,48.248],[26.62,48.26],[26.714,48.263],[26.786,48.256],[26.901,48.211],[26.98,48.156],[27.013,48.11],[27.081,48.048],[27.153,47.959],[27.232,47.841],[27.247,47.782],[27.279,47.718],[27.337,47.64],[27.448,47.553],[27.466,47.536],[27.517,47.475],[27.614,47.34],[27.697,47.286],[27.769,47.227],[27.801,47.168],[27.855,47.114],[27.974,47.043],[28.071,46.979],[28.15,46.793],[28.204,46.706],[28.24,46.64],[28.222,46.508],[28.244,46.451],[28.201,46.347],[28.118,46.138],[28.1,45.973],[28.114,45.883],[28.114,45.826],[28.136,45.789],[28.158,45.713],[28.161,45.647],[28.132,45.628],[28.089,45.612],[28.075,45.598],[28.111,45.569],[28.161,45.513],[28.212,45.451]]]]}},{"type":"Feature","properties":{"name":"Poland","code":"PL"},"geometry":{"type":"MultiPolygon","coordinates":[[[[23.604,51.518],[23.658,51.449],[23.679,51.395],[23.658,51.353],[23.665,51.31],[23.712,51.265],[23.863,51.126],[23.938,50.992],[23.985,50.94],[24.097,50.872],[24.104,50.845],[24.061,50.82],[24.025,50.817],[23.996,50.81],[23.978,50.786],[24.007,50.76],[24.046,50.723],[24.093,50.617],[24.09,50.53],[24.054,50.508],[24.003,50.458],[23.974,50.411],[23.712,50.378],[23.65,50.327],[23.506,50.23],[23.409,50.175],[23.265,50.072],[23.035,49.899],[22.952,49.826],[22.891,49.767],[22.707,49.607],[22.65,49.539],[22.66,49.484],[22.722,49.353],[22.732,49.294],[22.722,49.241],[22.704,49.192],[22.707,49.171],[22.761,49.136],[22.848,49.081],[22.851,49.064],[22.84,49.039],[22.808,49.02],[22.7,49.039],[22.581,49.077],[22.538,49.072],[22.473,49.081],[22.203,49.154],[22.02,49.209],[22.002,49.246],[21.969,49.3],[21.89,49.343],[21.714,49.381],[21.638,49.412],[21.35,49.428],[21.224,49.43],[21.138,49.418],[21.08,49.418],[21.001,49.34],[20.947,49.317],[20.868,49.315],[20.799,49.329],[20.727,49.369],[20.616,49.392],[20.533,49.381],[20.475,49.39],[20.421,49.392],[20.403,49.385],[20.364,49.385],[20.302,49.366],[20.238,49.338],[20.162,49.317],[20.108,49.27],[20.058,49.182],[19.917,49.222],[19.87,49.204],[19.802,49.192],[19.755,49.204],[19.766,49.235],[19.788,49.27],[19.788,49.319],[19.773,49.373],[19.73,49.39],[19.665,49.397],[19.629,49.407],[19.626,49.425],[19.593,49.447],[19.536,49.505],[19.478,49.576],[19.442,49.598],[19.388,49.564],[19.302,49.525],[19.251,49.511],[19.15,49.4],[18.967,49.397],[18.956,49.449],[18.938,49.498],[18.834,49.511],[18.83,49.541],[18.808,49.614],[18.596,49.758],[18.567,49.819],[18.578,49.841],[18.564,49.879],[18.517,49.902],[18.348,49.93],[18.304,49.914],[18.265,49.93],[18.204,49.965],[18.099,49.992],[18.088,50.008],[18.049,50.032],[18.027,50.036],[18.016,50.02],[17.984,49.999],[17.876,49.971],[17.833,49.984],[17.793,50.006],[17.746,50.057],[17.682,50.1],[17.628,50.116],[17.595,50.14],[17.588,50.157],[17.71,50.194],[17.736,50.23],[17.721,50.298],[17.703,50.307],[17.656,50.284],[17.556,50.265],[17.462,50.254],[17.415,50.254],[17.152,50.378],[16.98,50.416],[16.879,50.426],[16.868,50.414],[16.915,50.345],[16.994,50.26],[16.99,50.237],[16.897,50.202],[16.843,50.187],[16.778,50.157],[16.724,50.116],[16.681,50.098],[16.638,50.102],[16.598,50.123],[16.486,50.249],[16.35,50.345],[16.335,50.367],[16.292,50.373],[16.231,50.393],[16.209,50.425],[16.242,50.454],[16.281,50.484],[16.357,50.501],[16.378,50.517],[16.393,50.541],[16.418,50.574],[16.411,50.584],[16.36,50.621],[16.281,50.655],[16.065,50.629],[16.008,50.612],[15.975,50.635],[15.95,50.671],[15.892,50.676],[15.82,50.709],[15.73,50.741],[15.644,50.749],[15.464,50.794],[15.396,50.796],[15.356,50.812],[15.313,50.846],[15.277,50.883],[15.259,50.959],[15.126,50.992],[14.992,51.015],[14.985,51.003],[14.989,50.928],[14.982,50.886],[14.895,50.862],[14.809,50.859],[14.816,50.872],[14.917,51.008],[14.964,51.095],[15.018,51.253],[14.953,51.378],[14.935,51.435],[14.906,51.463],[14.726,51.523],[14.712,51.544],[14.74,51.628],[14.726,51.662],[14.683,51.699],[14.625,51.77],[14.6,51.832],[14.676,51.905],[14.694,51.957],[14.726,52.03],[14.748,52.07],[14.751,52.082],[14.704,52.11],[14.694,52.15],[14.704,52.207],[14.679,52.251],[14.614,52.277],[14.575,52.313],[14.553,52.36],[14.571,52.431],[14.618,52.529],[14.514,52.645],[14.254,52.782],[14.128,52.878],[14.139,52.933],[14.193,52.982],[14.294,53.027],[14.37,53.105],[14.409,53.199],[14.413,53.216],[14.416,53.284],[14.298,53.556],[14.28,53.624],[14.265,53.707],[14.258,53.73],[14.488,53.673],[14.582,53.64],[14.571,53.676],[14.553,53.707],[14.564,53.754],[14.557,53.824],[14.352,53.858],[14.215,53.871],[14.197,53.919],[14.211,53.95],[14.251,53.931],[14.384,53.924],[14.715,54.018],[15.288,54.14],[15.9,54.254],[16.044,54.266],[16.188,54.291],[16.238,54.332],[16.292,54.362],[16.375,54.436],[16.558,54.555],[16.886,54.596],[17.008,54.652],[17.26,54.73],[17.844,54.817],[18.085,54.836],[18.322,54.838],[18.535,54.77],[18.758,54.685],[18.801,54.633],[18.679,54.666],[18.502,54.742],[18.438,54.745],[18.589,54.513],[18.668,54.431],[18.837,54.369],[18.978,54.35],[19.406,54.386],[19.561,54.435],[19.604,54.459],[19.644,54.447],[19.924,54.435],[20.209,54.421],[20.666,54.407],[21.141,54.391],[21.634,54.376],[22.167,54.36],[22.732,54.35],[22.765,54.357],[22.822,54.397],[22.894,54.391],[22.977,54.367],[23.017,54.348],[23.031,54.327],[23.042,54.305],[23.089,54.299],[23.172,54.282],[23.283,54.24],[23.37,54.2],[23.452,54.143],[23.481,54.079],[23.481,54.006],[23.478,53.959],[23.485,53.94],[23.6,53.6],[23.791,53.272],[23.859,53.112],[23.888,53.027],[23.91,52.905],[23.917,52.819],[23.917,52.77],[23.902,52.704],[23.845,52.664],[23.481,52.551],[23.409,52.516],[23.305,52.428],[23.204,52.338],[23.182,52.306],[23.175,52.287],[23.197,52.256],[23.326,52.209],[23.46,52.169],[23.503,52.14],[23.596,52.103],[23.632,52.07],[23.654,52.041],[23.65,51.973],[23.607,51.879],[23.625,51.81],[23.582,51.763],[23.546,51.711],[23.539,51.619],[23.604,51.518]]]]}},{"type":"Feature","properties":{"name":"Germany","code":"DE"},"geometry":{"type":"MultiPolygon","coordinates":[[[[9.524,47.524],[9.351,47.598],[9.182,47.671],[9.128,47.671],[8.879,47.656],[8.872,47.663],[8.833,47.704],[8.793,47.716],[8.771,47.709],[8.753,47.697],[8.728,47.701],[8.617,47.767],[8.573,47.775],[8.509,47.767],[8.437,47.732],[8.404,47.689],[8.411,47.663],[8.451,47.652],[8.552,47.659],[8.566,47.652],[8.57,47.638],[8.559,47.624],[8.476,47.612],[8.455,47.597],[8.429,47.591],[8.415,47.59],[8.329,47.607],[8.199,47.607],[8.095,47.576],[7.925,47.564],[7.699,47.571],[7.616,47.593],[7.565,47.607],[7.529,47.673],[7.54,47.774],[7.594,47.906],[7.609,48.003],[7.583,48.064],[7.616,48.157],[7.706,48.281],[7.763,48.411],[7.796,48.546],[7.839,48.636],[7.922,48.699],[8.123,48.873],[8.141,48.886],[8.134,48.973],[8.08,48.985],[8.001,49.011],[7.799,49.043],[7.612,49.062],[7.526,49.086],[7.45,49.152],[7.403,49.154],[7.313,49.13],[7.198,49.114],[7.119,49.128],[7.065,49.124],[7.036,49.112],[7.022,49.123],[7,49.18],[6.957,49.195],[6.892,49.208],[6.849,49.202],[6.82,49.175],[6.777,49.154],[6.734,49.161],[6.608,49.291],[6.575,49.32],[6.565,49.347],[6.536,49.395],[6.457,49.442],[6.381,49.458],[6.345,49.452],[6.349,49.513],[6.377,49.6],[6.406,49.645],[6.446,49.682],[6.485,49.708],[6.493,49.754],[6.489,49.798],[6.442,49.805],[6.323,49.838],[6.255,49.873],[6.205,49.916],[6.14,49.975],[6.111,50.034],[6.107,50.095],[6.118,50.121],[6.122,50.14],[6.176,50.232],[6.363,50.317],[6.345,50.4],[6.341,50.452],[6.295,50.485],[6.205,50.499],[6.179,50.522],[6.169,50.546],[6.237,50.596],[6.154,50.638],[6.118,50.68],[6.007,50.732],[5.992,50.751],[6.05,50.905],[6.007,50.951],[5.956,50.973],[5.895,50.984],[5.866,51.006],[5.859,51.03],[5.87,51.046],[5.938,51.041],[5.96,51.056],[6.129,51.147],[6.136,51.164],[6.115,51.175],[6.082,51.18],[6.075,51.199],[6.075,51.225],[6.165,51.355],[6.194,51.411],[6.197,51.451],[6.194,51.489],[6.14,51.55],[6.089,51.598],[6.089,51.638],[6.053,51.659],[5.949,51.763],[5.949,51.803],[6.007,51.834],[6.089,51.853],[6.118,51.871],[6.165,51.881],[6.298,51.852],[6.356,51.824],[6.374,51.831],[6.424,51.859],[6.518,51.853],[6.741,51.911],[6.773,51.938],[6.799,51.968],[6.802,51.98],[6.716,52.036],[6.712,52.056],[6.723,52.081],[6.748,52.098],[6.799,52.112],[6.856,52.136],[6.979,52.206],[7.018,52.266],[7.033,52.331],[7.036,52.381],[7,52.419],[6.968,52.444],[6.921,52.44],[6.831,52.442],[6.748,52.464],[6.701,52.499],[6.691,52.53],[6.712,52.549],[6.719,52.574],[6.705,52.598],[6.712,52.617],[6.748,52.635],[7.015,52.633],[7.033,52.652],[7.051,52.746],[7.115,52.886],[7.18,52.966],[7.191,52.999],[7.187,53.187],[7.198,53.282],[7.151,53.327],[7.054,53.376],[7.076,53.478],[7.108,53.556],[7.205,53.655],[7.285,53.681],[7.63,53.697],[8.008,53.69],[8.167,53.544],[8.109,53.468],[8.199,53.433],[8.246,53.445],[8.278,53.511],[8.3,53.584],[8.332,53.607],[8.451,53.551],[8.494,53.515],[8.494,53.395],[8.537,53.556],[8.505,53.671],[8.527,53.78],[8.577,53.839],[8.62,53.876],[8.897,53.836],[9.207,53.857],[9.322,53.813],[9.585,53.6],[9.671,53.565],[9.783,53.555],[9.632,53.6],[9.311,53.858],[9.218,53.891],[9.07,53.9],[8.977,53.926],[8.919,53.966],[8.905,54.001],[8.908,54.261],[8.851,54.299],[8.779,54.313],[8.735,54.296],[8.645,54.294],[8.627,54.353],[8.649,54.398],[8.833,54.428],[8.951,54.468],[8.959,54.539],[8.879,54.594],[8.789,54.695],[8.681,54.792],[8.671,54.903],[8.858,54.902],[8.905,54.897],[9.185,54.844],[9.254,54.808],[9.34,54.806],[9.499,54.841],[9.617,54.855],[9.661,54.834],[9.725,54.825],[9.74,54.825],[9.747,54.808],[9.891,54.78],[9.952,54.739],[10.021,54.674],[10.028,54.581],[9.941,54.515],[9.869,54.473],[10.143,54.489],[10.172,54.45],[10.212,54.409],[10.359,54.438],[10.73,54.317],[10.957,54.376],[11.014,54.379],[11.065,54.28],[11.007,54.181],[10.809,54.075],[10.856,54.009],[10.917,53.996],[11.104,54.009],[11.4,53.945],[11.461,53.964],[11.702,54.114],[11.796,54.145],[12.112,54.169],[12.17,54.226],[12.296,54.284],[12.379,54.346],[12.577,54.468],[12.778,54.445],[12.897,54.423],[13.03,54.41],[13.149,54.282],[13.448,54.141],[13.725,54.154],[13.822,54.02],[13.866,53.853],[13.952,53.801],[14.024,53.768],[14.251,53.732],[14.258,53.73],[14.265,53.707],[14.28,53.624],[14.298,53.556],[14.416,53.284],[14.413,53.216],[14.409,53.199],[14.37,53.105],[14.294,53.027],[14.193,52.982],[14.139,52.933],[14.128,52.878],[14.254,52.782],[14.514,52.645],[14.618,52.529],[14.571,52.431],[14.553,52.36],[14.575,52.313],[14.614,52.277],[14.679,52.251],[14.704,52.207],[14.694,52.15],[14.704,52.11],[14.751,52.082],[14.748,52.07],[14.726,52.03],[14.694,51.957],[14.676,51.905],[14.6,51.832],[14.625,51.77],[14.683,51.699],[14.726,51.662],[14.74,51.628],[14.712,51.544],[14.726,51.523],[14.906,51.463],[14.935,51.435],[14.953,51.378],[15.018,51.253],[14.964,51.095],[14.917,51.008],[14.816,50.872],[14.809,50.859],[14.798,50.843],[14.766,50.819],[14.722,50.815],[14.658,50.833],[14.614,50.855],[14.625,50.914],[14.596,50.919],[14.56,50.954],[14.546,50.994],[14.506,51.01],[14.366,51.027],[14.319,51.037],[14.283,51.029],[14.254,51.003],[14.272,50.977],[14.301,50.952],[14.377,50.914],[14.37,50.899],[14.2,50.862],[14.096,50.822],[13.999,50.801],[13.898,50.761],[13.7,50.716],[13.556,50.704],[13.527,50.694],[13.473,50.617],[13.437,50.602],[13.401,50.609],[13.376,50.622],[13.34,50.612],[13.308,50.586],[13.268,50.576],[13.239,50.577],[13.182,50.51],[13.016,50.491],[12.998,50.456],[12.966,50.416],[12.944,50.407],[12.868,50.423],[12.764,50.432],[12.706,50.409],[12.634,50.397],[12.548,50.393],[12.454,50.35],[12.357,50.274],[12.307,50.206],[12.278,50.182],[12.231,50.244],[12.174,50.289],[12.134,50.312],[12.098,50.312],[12.091,50.301],[12.091,50.268],[12.127,50.213],[12.174,50.176],[12.181,50.149],[12.21,50.098],[12.278,50.043],[12.386,49.999],[12.458,49.956],[12.512,49.895],[12.512,49.878],[12.498,49.853],[12.472,49.831],[12.451,49.8],[12.39,49.739],[12.408,49.713],[12.458,49.68],[12.501,49.64],[12.555,49.576],[12.631,49.461],[12.681,49.414],[12.75,49.366],[12.814,49.329],[12.915,49.331],[13.023,49.26],[13.142,49.159],[13.228,49.112],[13.29,49.098],[13.34,49.06],[13.383,49.008],[13.401,48.977],[13.441,48.956],[13.549,48.959],[13.686,48.876],[13.768,48.815],[13.815,48.767],[13.804,48.748],[13.797,48.687],[13.797,48.621],[13.786,48.588],[13.725,48.543],[13.693,48.532],[13.675,48.524],[13.488,48.583],[13.473,48.572],[13.459,48.565],[13.408,48.393],[13.376,48.362],[13.322,48.331],[13.214,48.301],[13.142,48.289],[13.081,48.275],[12.897,48.204],[12.814,48.161],[12.76,48.107],[12.76,48.076],[12.85,47.985],[12.955,47.89],[12.955,47.808],[12.908,47.746],[12.897,47.722],[12.93,47.713],[12.987,47.709],[13.034,47.699],[13.056,47.656],[13.048,47.579],[13.03,47.508],[13.016,47.479],[12.969,47.475],[12.879,47.506],[12.811,47.543],[12.782,47.564],[12.782,47.59],[12.796,47.607],[12.771,47.64],[12.685,47.67],[12.595,47.656],[12.526,47.637],[12.483,47.637],[12.436,47.666],[12.364,47.689],[12.267,47.703],[12.21,47.718],[12.195,47.709],[12.202,47.647],[12.184,47.619],[11.716,47.583],[11.572,47.55],[11.472,47.506],[11.392,47.487],[11.374,47.459],[11.299,47.425],[11.212,47.414],[11.191,47.425],[11.137,47.409],[11.043,47.394],[10.982,47.399],[10.953,47.427],[10.896,47.47],[10.87,47.501],[10.874,47.52],[10.741,47.524],[10.658,47.548],[10.482,47.541],[10.438,47.551],[10.431,47.541],[10.402,47.418],[10.37,47.366],[10.312,47.314],[10.24,47.284],[10.183,47.279],[10.186,47.317],[10.201,47.364],[10.158,47.374],[10.096,47.38],[10.068,47.394],[10.075,47.428],[10.06,47.449],[10.035,47.473],[9.97,47.505],[9.841,47.551],[9.751,47.576],[9.715,47.551],[9.65,47.525],[9.549,47.534],[9.524,47.524]]],[[[13.711,54.383],[13.736,54.315],[13.707,54.282],[13.596,54.338],[13.48,54.338],[13.416,54.249],[13.365,54.246],[13.189,54.325],[13.164,54.365],[13.156,54.397],[13.182,54.509],[13.178,54.544],[13.232,54.582],[13.239,54.638],[13.336,54.697],[13.423,54.699],[13.452,54.65],[13.491,54.615],[13.635,54.577],[13.657,54.56],[13.671,54.535],[13.603,54.489],[13.581,54.464],[13.603,54.424],[13.711,54.383]]],[[[14.211,53.95],[14.197,53.919],[14.215,53.871],[14.172,53.874],[14.049,53.864],[13.927,53.879],[13.902,53.938],[13.923,53.997],[13.873,54.035],[13.826,54.06],[13.819,54.093],[13.826,54.127],[14.038,54.034],[14.211,53.95]]],[[[11.284,54.417],[11.13,54.416],[11.072,54.456],[11.011,54.466],[11.043,54.516],[11.086,54.534],[11.234,54.501],[11.281,54.438],[11.284,54.417]]],[[[8.307,54.787],[8.285,54.766],[8.296,54.909],[8.404,55.058],[8.451,55.055],[8.404,55.015],[8.39,54.987],[8.372,54.93],[8.379,54.9],[8.631,54.891],[8.602,54.865],[8.347,54.848],[8.307,54.787]]],[[[8.588,54.713],[8.548,54.688],[8.455,54.692],[8.401,54.714],[8.419,54.739],[8.469,54.758],[8.509,54.761],[8.573,54.749],[8.588,54.713]]]]}},{"type":"Feature","properties":{"name":"Finland","code":"FI"},"geometry":{"type":"MultiPolygon","coordinates":[[[[24.154,65.806],[24.05,65.99],[23.996,66.061],[23.906,66.148],[23.751,66.191],[23.722,66.215],[23.701,66.253],[23.694,66.304],[23.672,66.38],[23.683,66.443],[23.701,66.481],[23.769,66.505],[23.866,66.576],[23.884,66.628],[23.895,66.707],[23.938,66.776],[23.989,66.811],[23.974,66.838],[23.942,66.878],[23.87,66.934],[23.758,67.003],[23.676,67.068],[23.643,67.13],[23.622,67.184],[23.625,67.234],[23.658,67.267],[23.762,67.311],[23.776,67.328],[23.733,67.424],[23.661,67.441],[23.539,67.45],[23.467,67.45],[23.456,67.46],[23.452,67.479],[23.467,67.517],[23.503,67.562],[23.535,67.59],[23.542,67.614],[23.499,67.696],[23.488,67.797],[23.503,67.875],[23.632,67.934],[23.64,67.955],[23.474,68.017],[23.355,68.088],[23.319,68.13],[23.182,68.137],[23.1,68.257],[22.974,68.316],[22.855,68.368],[22.783,68.39],[22.362,68.463],[22.196,68.477],[21.998,68.521],[21.85,68.574],[21.724,68.609],[21.616,68.651],[21.465,68.691],[21.422,68.724],[21.26,68.788],[21.184,68.828],[20.918,68.906],[20.907,68.937],[20.907,68.967],[20.896,68.979],[20.623,69.036],[20.677,69.069],[20.889,69.071],[21.066,69.041],[21.105,69.054],[21.127,69.081],[21.051,69.187],[21.066,69.213],[21.145,69.248],[21.267,69.274],[21.462,69.278],[21.595,69.274],[21.62,69.271],[21.818,69.154],[21.991,69.041],[22.081,68.993],[22.3,68.856],[22.383,68.776],[22.412,68.72],[22.502,68.72],[22.812,68.696],[23.071,68.675],[23.143,68.642],[23.323,68.649],[23.463,68.677],[23.708,68.713],[23.773,68.759],[23.856,68.805],[23.996,68.798],[24.154,68.76],[24.331,68.712],[24.489,68.689],[24.702,68.653],[24.802,68.606],[24.943,68.594],[25.087,68.639],[25.173,68.765],[25.249,68.821],[25.357,68.863],[25.479,68.88],[25.576,68.887],[25.648,68.92],[25.749,68.989],[25.767,69.076],[25.749,69.231],[25.767,69.283],[25.85,69.366],[25.962,69.588],[26.012,69.653],[26.073,69.691],[26.156,69.715],[26.307,69.783],[26.527,69.915],[26.584,69.927],[26.739,69.934],[26.934,69.929],[27.11,69.904],[27.128,69.906],[27.207,69.918],[27.348,69.96],[27.592,70.041],[27.747,70.064],[27.891,70.062],[28.046,69.972],[28.269,69.871],[28.413,69.823],[28.802,69.731],[29.14,69.672],[29.335,69.474],[29.238,69.394],[29.191,69.366],[29.025,69.288],[28.845,69.177],[28.831,69.12],[28.892,69.061],[28.964,69.022],[28.899,69.01],[28.69,68.962],[28.564,68.929],[28.413,68.904],[28.453,68.873],[28.705,68.866],[28.744,68.856],[28.773,68.84],[28.777,68.814],[28.752,68.771],[28.478,68.538],[28.471,68.488],[28.561,68.351],[28.687,68.189],[29.061,68.118],[29.342,68.062],[29.526,67.929],[29.821,67.753],[29.979,67.689],[29.986,67.668],[29.94,67.547],[29.749,67.427],[29.572,67.325],[29.389,67.201],[29.245,67.097],[29.086,66.97],[29.068,66.931],[29.065,66.892],[29.094,66.849],[29.292,66.696],[29.371,66.616],[29.464,66.533],[29.544,66.439],[29.59,66.358],[29.67,66.276],[29.72,66.234],[29.803,66.177],[29.904,66.09],[29.936,66.023],[30.087,65.786],[30.102,65.726],[30.095,65.682],[30.03,65.67],[29.882,65.663],[29.724,65.634],[29.716,65.625],[29.821,65.569],[29.727,65.474],[29.716,65.337],[29.616,65.266],[29.608,65.248],[29.612,65.234],[29.63,65.224],[29.81,65.205],[29.824,65.186],[29.828,65.146],[29.81,65.108],[29.72,65.08],[29.623,65.04],[29.601,65.002],[29.605,64.969],[29.637,64.912],[29.702,64.846],[29.785,64.804],[30.073,64.766],[30.109,64.733],[30.127,64.688],[30.12,64.644],[29.986,64.557],[29.986,64.524],[30.041,64.443],[30.109,64.366],[30.39,64.283],[30.487,64.236],[30.512,64.2],[30.527,64.141],[30.527,64.077],[30.505,64.021],[30.415,63.948],[30.21,63.804],[30.005,63.747],[29.99,63.735],[30.055,63.689],[30.419,63.504],[30.656,63.417],[30.977,63.301],[31.182,63.209],[31.247,63.143],[31.337,63.068],[31.437,63.007],[31.509,62.955],[31.538,62.922],[31.535,62.886],[31.437,62.776],[31.383,62.691],[31.286,62.568],[31.185,62.481],[30.937,62.323],[30.566,62.127],[30.48,62.068],[30.307,61.966],[30.012,61.757],[29.932,61.712],[29.691,61.545],[29.58,61.493],[29.493,61.445],[29.252,61.288],[28.993,61.169],[28.737,61.059],[28.662,61.002],[28.568,60.96],[28.456,60.92],[28.406,60.896],[28.15,60.745],[27.798,60.537],[27.762,60.533],[27.668,60.499],[27.524,60.49],[27.463,60.466],[27.243,60.539],[27.204,60.544],[27.074,60.525],[26.952,60.471],[26.721,60.455],[26.606,60.438],[26.534,60.414],[26.52,60.471],[26.552,60.545],[26.602,60.596],[26.606,60.627],[26.57,60.625],[26.494,60.552],[26.455,60.467],[26.379,60.424],[26.206,60.407],[26.037,60.474],[25.954,60.474],[26.005,60.426],[26.041,60.372],[26.037,60.342],[25.947,60.348],[25.846,60.315],[25.756,60.268],[25.717,60.268],[25.656,60.334],[25.548,60.302],[25.454,60.261],[25.267,60.249],[25.155,60.195],[24.957,60.157],[24.849,60.158],[24.601,60.115],[24.518,60.046],[24.446,60.021],[24.342,60.042],[24.025,60.009],[23.722,59.966],[23.593,59.967],[23.463,59.986],[23.326,59.926],[23.182,59.844],[23.02,59.816],[22.963,59.827],[23.01,59.868],[23.114,59.912],[23.19,59.973],[23.197,60.021],[23.15,60.042],[23.082,60.047],[22.995,60.099],[22.912,60.21],[22.866,60.216],[22.844,60.186],[22.819,60.101],[22.794,60.077],[22.75,60.058],[22.696,60.037],[22.646,60.028],[22.462,60.03],[22.437,60.072],[22.437,60.091],[22.47,60.146],[22.444,60.157],[22.47,60.202],[22.513,60.198],[22.563,60.205],[22.588,60.228],[22.588,60.256],[22.516,60.263],[22.513,60.282],[22.578,60.36],[22.585,60.381],[22.56,60.386],[22.52,60.377],[22.257,60.401],[21.933,60.5],[21.854,60.506],[21.804,60.594],[21.728,60.584],[21.613,60.532],[21.526,60.57],[21.436,60.596],[21.411,60.637],[21.411,60.697],[21.404,60.768],[21.379,60.849],[21.361,60.967],[21.379,61.059],[21.451,61.127],[21.48,61.17],[21.512,61.282],[21.523,61.41],[21.501,61.455],[21.508,61.485],[21.566,61.485],[21.552,61.509],[21.526,61.523],[21.498,61.552],[21.523,61.568],[21.591,61.568],[21.598,61.578],[21.606,61.592],[21.552,61.667],[21.544,61.703],[21.469,61.811],[21.386,61.915],[21.256,61.99],[21.303,62.113],[21.354,62.224],[21.343,62.278],[21.325,62.342],[21.166,62.413],[21.141,62.514],[21.105,62.623],[21.12,62.689],[21.145,62.74],[21.195,62.79],[21.458,62.95],[21.472,63.033],[21.652,63.04],[21.57,63.113],[21.548,63.155],[21.544,63.205],[21.8,63.238],[21.897,63.21],[22.12,63.245],[22.318,63.311],[22.315,63.346],[22.286,63.377],[22.243,63.438],[22.272,63.455],[22.347,63.443],[22.311,63.472],[22.318,63.504],[22.398,63.491],[22.527,63.58],[22.531,63.648],[22.758,63.684],[23.013,63.821],[23.132,63.865],[23.247,63.896],[23.496,64.035],[23.6,64.04],[23.654,64.134],[23.863,64.259],[23.924,64.274],[24.021,64.386],[24.277,64.516],[24.439,64.681],[24.529,64.738],[24.558,64.8],[24.658,64.806],[24.748,64.853],[24.943,64.884],[25.134,64.875],[25.213,64.854],[25.288,64.861],[25.281,64.917],[25.227,64.951],[25.27,64.984],[25.371,65.009],[25.364,65.064],[25.339,65.099],[25.256,65.142],[25.299,65.243],[25.306,65.352],[25.346,65.479],[25.242,65.547],[24.838,65.66],[24.763,65.656],[24.676,65.67],[24.583,65.757],[24.622,65.832],[24.63,65.859],[24.59,65.858],[24.532,65.821],[24.403,65.781],[24.237,65.813],[24.154,65.806]]],[[[21.994,60.337],[21.922,60.332],[21.818,60.382],[21.807,60.401],[21.847,60.412],[21.818,60.452],[21.829,60.469],[21.908,60.438],[21.951,60.401],[21.908,60.393],[21.98,60.355],[21.994,60.337]]],[[[21.217,63.241],[21.228,63.222],[21.289,63.228],[21.364,63.262],[21.422,63.247],[21.415,63.198],[21.379,63.2],[21.368,63.207],[21.318,63.179],[21.31,63.163],[21.253,63.151],[21.148,63.2],[21.084,63.278],[21.235,63.278],[21.22,63.259],[21.217,63.241]]],[[[22.174,60.37],[22.3,60.348],[22.354,60.356],[22.416,60.304],[22.311,60.269],[22.304,60.228],[22.347,60.203],[22.362,60.165],[22.257,60.165],[22.21,60.197],[22.189,60.236],[22.142,60.264],[22.077,60.287],[22.11,60.315],[22.128,60.356],[22.174,60.37]]],[[[21.451,60.53],[21.436,60.483],[21.368,60.488],[21.3,60.48],[21.246,60.526],[21.213,60.605],[21.224,60.62],[21.267,60.637],[21.3,60.596],[21.451,60.53]]],[[[21.832,60.141],[21.732,60.106],[21.696,60.115],[21.706,60.172],[21.764,60.198],[21.865,60.202],[21.832,60.141]]],[[[21.627,60.108],[21.541,60.098],[21.487,60.127],[21.508,60.148],[21.57,60.172],[21.634,60.169],[21.649,60.141],[21.627,60.108]]],[[[24.849,64.991],[24.698,64.958],[24.579,64.979],[24.576,65.043],[24.651,65.075],[24.784,65.087],[24.972,65.056],[24.997,65.038],[24.892,65.026],[24.849,64.991]]]]}},{"type":"Feature","properties":{"name":"Bulgaria","code":"BG"},"geometry":{"type":"MultiPolygon","coordinates":[[[[28.014,41.969],[27.88,41.986],[27.834,41.981],[27.801,41.956],[27.74,41.962],[27.661,41.962],[27.582,41.932],[27.535,41.922],[27.474,41.948],[27.362,42.026],[27.294,42.08],[27.243,42.094],[27.193,42.078],[27.013,42.059],[26.97,42.028],[26.883,41.991],[26.8,41.975],[26.678,41.963],[26.617,41.965],[26.581,41.948],[26.548,41.897],[26.53,41.847],[26.512,41.826],[26.361,41.802],[26.329,41.772],[26.318,41.745],[26.322,41.717],[26.199,41.745],[26.106,41.725],[26.084,41.705],[26.066,41.673],[26.077,41.64],[26.113,41.607],[26.145,41.522],[26.156,41.436],[26.134,41.385],[26.066,41.35],[25.922,41.312],[25.785,41.33],[25.724,41.316],[25.623,41.311],[25.526,41.3],[25.382,41.264],[25.252,41.243],[25.134,41.316],[24.993,41.364],[24.846,41.394],[24.795,41.373],[24.774,41.356],[24.651,41.42],[24.597,41.443],[24.568,41.467],[24.518,41.552],[24.489,41.555],[24.388,41.524],[24.291,41.526],[24.23,41.531],[24.057,41.528],[24.032,41.469],[24.01,41.46],[23.974,41.453],[23.881,41.456],[23.762,41.413],[23.636,41.387],[23.535,41.385],[23.434,41.399],[23.373,41.39],[23.24,41.385],[23.157,41.323],[23.024,41.326],[22.916,41.337],[22.93,41.356],[22.952,41.606],[23.006,41.717],[23.002,41.739],[22.992,41.757],[22.945,41.776],[22.909,41.835],[22.837,41.993],[22.797,42.026],[22.682,42.059],[22.581,42.106],[22.498,42.165],[22.344,42.314],[22.423,42.33],[22.444,42.359],[22.524,42.441],[22.531,42.481],[22.524,42.503],[22.473,42.543],[22.437,42.63],[22.462,42.71],[22.466,42.751],[22.441,42.791],[22.466,42.842],[22.524,42.869],[22.56,42.878],[22.707,42.883],[22.801,42.986],[22.858,43.019],[22.916,43.076],[22.941,43.097],[22.966,43.142],[22.977,43.187],[22.858,43.253],[22.819,43.3],[22.768,43.354],[22.696,43.39],[22.556,43.455],[22.498,43.519],[22.473,43.602],[22.437,43.666],[22.394,43.706],[22.387,43.741],[22.369,43.781],[22.365,43.862],[22.398,43.97],[22.419,44.007],[22.47,44.019],[22.599,44.076],[22.603,44.149],[22.628,44.194],[22.668,44.22],[22.704,44.237],[22.776,44.196],[22.945,44.128],[23.028,44.078],[23.024,44.047],[22.984,44.017],[22.912,43.987],[22.869,43.948],[22.855,43.899],[22.869,43.864],[22.92,43.835],[23.226,43.875],[23.535,43.854],[23.949,43.786],[24.226,43.764],[24.432,43.795],[24.81,43.739],[25.159,43.687],[25.497,43.672],[25.684,43.711],[25.818,43.767],[25.933,43.871],[26.217,44.007],[26.491,44.085],[26.847,44.145],[27.088,44.168],[27.121,44.145],[27.427,44.02],[27.56,44.02],[27.672,43.998],[27.711,43.965],[27.74,43.956],[27.884,43.987],[27.949,43.918],[28.05,43.823],[28.222,43.772],[28.374,43.744],[28.424,43.741],[28.586,43.743],[28.561,43.501],[28.464,43.389],[28.32,43.427],[28.132,43.396],[28.035,43.269],[27.978,43.231],[27.927,43.185],[27.895,43.021],[27.888,42.75],[27.819,42.717],[27.754,42.706],[27.484,42.468],[27.639,42.401],[27.708,42.35],[27.823,42.208],[27.981,42.047],[28.014,41.969]]]]}},{"type":"Feature","properties":{"name":"Belarus","code":"BY"},"geometry":{"type":"MultiPolygon","coordinates":[[[[31.765,52.102],[31.574,52.109],[31.347,52.105],[31.218,52.049],[31.167,52.063],[31.081,52.077],[30.98,52.046],[30.847,51.952],[30.757,51.895],[30.667,51.813],[30.638,51.77],[30.584,51.688],[30.534,51.596],[30.563,51.532],[30.602,51.471],[30.613,51.407],[30.631,51.355],[30.577,51.319],[30.545,51.265],[30.451,51.273],[30.332,51.326],[30.311,51.4],[30.221,51.451],[30.159,51.478],[30.062,51.482],[29.907,51.458],[29.706,51.44],[29.554,51.435],[29.468,51.409],[29.346,51.383],[29.299,51.412],[29.23,51.497],[29.173,51.581],[29.137,51.617],[29.101,51.628],[29.061,51.626],[29.014,51.598],[28.978,51.572],[28.928,51.562],[28.849,51.541],[28.795,51.51],[28.73,51.433],[28.69,51.438],[28.647,51.456],[28.6,51.543],[28.532,51.562],[28.424,51.563],[28.291,51.582],[28.183,51.609],[28.143,51.602],[28.078,51.565],[28.01,51.56],[27.859,51.593],[27.83,51.577],[27.79,51.529],[27.74,51.482],[27.7,51.478],[27.675,51.49],[27.69,51.572],[27.6,51.602],[27.452,51.607],[27.348,51.595],[27.297,51.598],[27.268,51.614],[27.142,51.753],[27.074,51.761],[26.952,51.754],[26.772,51.77],[26.566,51.801],[26.455,51.813],[26.394,51.845],[26.268,51.855],[25.926,51.914],[25.785,51.924],[25.58,51.924],[25.267,51.938],[25.065,51.93],[24.975,51.911],[24.867,51.898],[24.684,51.888],[24.612,51.89],[24.496,51.883],[24.363,51.867],[24.324,51.838],[24.28,51.775],[24.126,51.664],[23.978,51.591],[23.953,51.584],[23.863,51.624],[23.791,51.636],[23.708,51.642],[23.647,51.629],[23.607,51.61],[23.614,51.525],[23.604,51.518],[23.539,51.619],[23.546,51.711],[23.582,51.763],[23.625,51.81],[23.607,51.879],[23.65,51.973],[23.654,52.041],[23.632,52.07],[23.596,52.103],[23.503,52.14],[23.46,52.169],[23.326,52.209],[23.197,52.256],[23.175,52.287],[23.182,52.306],[23.204,52.338],[23.305,52.428],[23.409,52.516],[23.481,52.551],[23.845,52.664],[23.902,52.704],[23.917,52.77],[23.917,52.819],[23.91,52.905],[23.888,53.027],[23.859,53.112],[23.791,53.272],[23.6,53.6],[23.485,53.94],[23.56,53.919],[23.733,53.912],[23.874,53.937],[23.946,53.938],[24.007,53.931],[24.104,53.945],[24.19,53.95],[24.237,53.919],[24.316,53.893],[24.478,53.931],[24.622,53.98],[24.766,53.975],[24.788,53.999],[24.824,54.119],[24.871,54.145],[25.047,54.133],[25.112,54.155],[25.18,54.214],[25.285,54.251],[25.371,54.251],[25.461,54.292],[25.504,54.265],[25.526,54.214],[25.497,54.176],[25.512,54.16],[25.573,54.14],[25.681,54.14],[25.749,54.157],[25.764,54.18],[25.764,54.221],[25.749,54.259],[25.702,54.292],[25.616,54.31],[25.558,54.311],[25.548,54.332],[25.569,54.377],[25.62,54.461],[25.684,54.535],[25.724,54.565],[25.731,54.591],[25.724,54.636],[25.724,54.718],[25.782,54.834],[25.861,54.919],[25.965,54.947],[26.091,54.962],[26.174,55.002],[26.217,55.051],[26.232,55.091],[26.25,55.124],[26.293,55.14],[26.602,55.131],[26.649,55.204],[26.674,55.225],[26.736,55.247],[26.775,55.273],[26.761,55.294],[26.682,55.306],[26.494,55.318],[26.458,55.343],[26.469,55.372],[26.52,55.449],[26.566,55.546],[26.592,55.622],[26.595,55.667],[26.62,55.679],[26.772,55.693],[26.822,55.709],[26.952,55.813],[27.052,55.83],[27.308,55.804],[27.427,55.806],[27.459,55.803],[27.578,55.799],[27.589,55.81],[27.643,55.912],[27.693,55.942],[27.895,56.077],[28.032,56.133],[28.118,56.146],[28.147,56.143],[28.284,56.056],[28.316,56.053],[28.392,56.087],[28.406,56.089],[28.564,56.093],[28.636,56.061],[28.69,56.002],[28.741,55.955],[28.795,55.943],[28.946,56.002],[29.032,56.021],[29.086,56.021],[29.284,55.968],[29.374,55.938],[29.396,55.912],[29.4,55.881],[29.374,55.834],[29.353,55.784],[29.414,55.725],[29.482,55.685],[29.63,55.751],[29.684,55.77],[29.745,55.77],[29.824,55.796],[29.882,55.832],[29.936,55.846],[30.044,55.836],[30.235,55.844],[30.455,55.787],[30.476,55.768],[30.588,55.7],[30.627,55.666],[30.663,55.655],[30.721,55.622],[30.8,55.601],[30.858,55.608],[30.883,55.596],[30.908,55.57],[30.908,55.525],[30.901,55.398],[30.861,55.36],[30.822,55.331],[30.811,55.306],[30.815,55.278],[30.876,55.223],[30.959,55.138],[30.977,55.087],[30.977,55.051],[30.869,54.94],[30.829,54.916],[30.804,54.86],[30.789,54.806],[30.8,54.784],[30.984,54.695],[31.121,54.648],[31.153,54.626],[31.157,54.61],[31.081,54.516],[31.074,54.492],[31.185,54.452],[31.247,54.391],[31.301,54.292],[31.405,54.195],[31.628,54.112],[31.794,54.056],[31.826,54.03],[31.837,54.001],[31.826,53.935],[31.783,53.855],[31.754,53.81],[31.823,53.792],[31.992,53.798],[32.201,53.782],[32.449,53.693],[32.453,53.654],[32.424,53.617],[32.442,53.579],[32.471,53.548],[32.687,53.449],[32.708,53.419],[32.712,53.371],[32.705,53.336],[32.643,53.329],[32.579,53.312],[32.471,53.27],[32.427,53.211],[32.251,53.128],[32.143,53.091],[32.057,53.089],[31.851,53.107],[31.776,53.147],[31.747,53.185],[31.668,53.2],[31.563,53.202],[31.419,53.195],[31.387,53.185],[31.365,53.14],[31.304,53.062],[31.257,53.016],[31.297,52.99],[31.355,52.933],[31.445,52.862],[31.535,52.798],[31.563,52.76],[31.563,52.732],[31.52,52.699],[31.527,52.633],[31.617,52.546],[31.585,52.532],[31.578,52.426],[31.578,52.312],[31.603,52.286],[31.65,52.263],[31.689,52.221],[31.758,52.126],[31.765,52.102]]]]}}]}