{"type":"FeatureCollection","features":[{"type":"Feature","properties":{"name":"Transnistria","status":"Breakaway region of Moldova; its border with Ukraine is closed","source":"Natural Earth 1:10m admin-0 breakaway/disputed areas (public domain)"},"geometry":{"type":"MultiPolygon","coordinates":[[[[29.8988,46.5531],[29.8907,46.5581],[29.8708,46.5764],[29.8678,46.5804],[29.8675,46.5804],[29.8529,46.5805],[29.8403,46.5822],[29.8399,46.5825],[29.8305,46.5883],[29.8236,46.601],[29.8234,46.6009],[29.787,46.5827],[29.7759,46.5804],[29.743,46.593],[29.7282,46.5941],[29.7283,46.5943],[29.7356,46.6073],[29.7479,46.6173],[29.7623,46.6244],[29.7759,46.6289],[29.7589,46.6585],[29.7491,46.6654],[29.7282,46.6698],[29.721,46.668],[29.7117,46.6646],[29.7035,46.6646],[29.7034,46.6649],[29.7002,46.673],[29.6958,46.6757],[29.6957,46.6757],[29.6858,46.6767],[29.6666,46.676],[29.6668,46.6763],[29.6897,46.707],[29.6981,46.7276],[29.6898,46.7483],[29.6798,46.7641],[29.6649,46.8009],[29.6524,46.8132],[29.6472,46.8144],[29.6281,46.8132],[29.6204,46.8149],[29.6168,46.8186],[29.6148,46.8232],[29.6114,46.8269],[29.6167,46.8269],[29.6188,46.8318],[29.6182,46.8377],[29.6148,46.8405],[29.6089,46.8395],[29.6057,46.8375],[29.6034,46.8353],[29.6008,46.8344],[29.5902,46.8237],[29.5769,46.8025],[29.5627,46.7869],[29.5494,46.7933],[29.5425,46.7933],[29.5323,46.7839],[29.5308,46.7825],[29.5121,46.7869],[29.5119,46.7871],[29.4981,46.8013],[29.5016,46.8207],[29.495,46.8283],[29.4944,46.8378],[29.4955,46.849],[29.4941,46.8616],[29.4887,46.8725],[29.4766,46.8895],[29.4743,46.8989],[29.4743,46.923],[29.4712,46.9414],[29.4618,46.9511],[29.4599,46.9531],[29.4597,46.9531],[29.4361,46.9572],[29.4162,46.9523],[29.3973,46.9425],[29.3762,46.9349],[29.35,46.9367],[29.3353,46.9439],[29.3327,46.9452],[29.3163,46.9584],[29.3034,46.9747],[29.2955,46.992],[29.3093,46.9881],[29.325,46.9881],[29.3414,46.9917],[29.3669,47.0027],[29.3705,47.0025],[29.3729,47.004],[29.378,47.0125],[29.3772,47.0123],[29.3738,47.0113],[29.3736,47.0116],[29.3695,47.0179],[29.3643,47.0329],[29.3704,47.0329],[29.3795,47.0293],[29.3806,47.0289],[29.3811,47.0287],[29.3826,47.0415],[29.378,47.0705],[29.3717,47.0784],[29.3713,47.0787],[29.3638,47.084],[29.3296,47.1081],[29.3293,47.1082],[29.3051,47.1161],[29.2986,47.1199],[29.2955,47.1217],[29.2915,47.1284],[29.2929,47.1351],[29.2926,47.1359],[29.2913,47.1401],[29.2909,47.1402],[29.2785,47.1422],[29.2644,47.148],[29.2644,47.1481],[29.25,47.1582],[29.2499,47.1583],[29.237,47.1622],[29.2272,47.149],[29.221,47.149],[29.2208,47.1493],[29.2132,47.1578],[29.2128,47.158],[29.2006,47.1628],[29.1882,47.1625],[29.1794,47.1558],[29.1802,47.1451],[29.1882,47.1345],[29.1943,47.1236],[29.1897,47.1114],[29.1797,47.1093],[29.1672,47.1125],[29.1565,47.1134],[29.1483,47.0963],[29.1306,47.0816],[29.1247,47.0739],[29.1189,47.078],[29.099,47.092],[29.0987,47.0921],[29.0849,47.0986],[29.0695,47.1013],[29.0696,47.1014],[29.0789,47.1166],[29.0946,47.1346],[29.1124,47.1496],[29.1449,47.1627],[29.1637,47.1916],[29.1794,47.1968],[29.1637,47.2305],[29.1633,47.2309],[29.1253,47.2743],[29.0938,47.3103],[29.0805,47.3323],[29.0792,47.3477],[29.0886,47.3513],[29.1231,47.3291],[29.1397,47.3291],[29.1543,47.3359],[29.1652,47.3477],[29.1395,47.3757],[29.1057,47.3905],[29.0829,47.4062],[29.0907,47.4371],[29.1075,47.4539],[29.111,47.4637],[29.1083,47.4694],[29.1042,47.478],[29.0932,47.4871],[29.093,47.4872],[29.0491,47.5059],[29.0489,47.5061],[29.0336,47.5184],[29.0252,47.5328],[29.0217,47.5499],[29.021,47.5708],[29.0162,47.5819],[28.9934,47.6045],[28.9868,47.622],[28.9893,47.6269],[28.994,47.6387],[28.9958,47.6507],[28.9907,47.6561],[28.9884,47.6605],[28.9809,47.6872],[28.976,47.7432],[28.9809,47.7653],[29.0181,47.8266],[29.0187,47.8533],[28.9809,47.8752],[28.9806,47.8753],[28.9423,47.8831],[28.8614,47.8995],[28.8409,47.9106],[28.8293,47.9168],[28.8306,47.9408],[28.8134,47.9651],[28.7851,47.9826],[28.7845,47.9825],[28.7542,47.9789],[28.7195,47.9987],[28.6985,48.0224],[28.6818,48.0307],[28.652,48.0191],[28.6432,48.0233],[28.6363,48.0299],[28.6313,48.0335],[28.6193,48.0326],[28.6107,48.0292],[28.5598,47.9983],[28.5381,47.9938],[28.5282,48.009],[28.5328,48.0198],[28.5437,48.0289],[28.5631,48.0404],[28.5898,48.0624],[28.5973,48.0671],[28.6073,48.0671],[28.6185,48.0637],[28.6276,48.063],[28.6313,48.0707],[28.6328,48.0842],[28.6299,48.0917],[28.6207,48.095],[28.609,48.0957],[28.5836,48.1018],[28.5555,48.1155],[28.5381,48.1199],[28.5177,48.1206],[28.5011,48.1128],[28.5193,48.1491],[28.5416,48.156],[28.5736,48.155],[28.6656,48.1293],[28.7351,48.1287],[28.7712,48.1245],[28.7993,48.1118],[28.8059,48.1038],[28.8084,48.0966],[28.8092,48.0898],[28.8116,48.0829],[28.8276,48.057],[28.8308,48.0309],[28.8325,48.0248],[28.8393,48.0183],[28.8557,48.0079],[28.8621,48.0005],[28.8826,47.9768],[28.9148,47.9531],[28.9361,47.9422],[28.9504,47.9348],[28.9808,47.9264],[29.0172,47.9311],[29.061,47.9698],[29.0927,47.9802],[29.11,47.9797],[29.124,47.976],[29.1363,47.9682],[29.148,47.9554],[29.1558,47.9399],[29.1646,47.9056],[29.1726,47.891],[29.1866,47.8836],[29.226,47.8756],[29.236,47.8707],[29.2328,47.8571],[29.2174,47.8429],[29.1989,47.8295],[29.1867,47.8182],[29.1777,47.8007],[29.1778,47.7897],[29.1874,47.7832],[29.222,47.7748],[29.2347,47.7668],[29.2386,47.756],[29.2267,47.7432],[29.197,47.7175],[29.1915,47.6863],[29.1924,47.6509],[29.1821,47.6132],[29.1562,47.5828],[29.1305,47.5596],[29.1174,47.5333],[29.1304,47.4932],[29.1305,47.4931],[29.1306,47.493],[29.1307,47.4929],[29.1372,47.484],[29.14,47.4802],[29.1556,47.45],[29.1639,47.4394],[29.1821,47.4299],[29.1924,47.4358],[29.2019,47.4466],[29.2184,47.4516],[29.2326,47.4463],[29.2507,47.4254],[29.2814,47.4115],[29.2882,47.4008],[29.2927,47.3889],[29.3008,47.3782],[29.3147,47.3727],[29.3304,47.3705],[29.3458,47.3658],[29.3589,47.3527],[29.3641,47.3369],[29.3645,47.3224],[29.3676,47.3082],[29.3709,47.3044],[29.3808,47.293],[29.3945,47.2847],[29.4096,47.2798],[29.4256,47.2787],[29.4417,47.2821],[29.4592,47.2935],[29.4661,47.3074],[29.4706,47.3227],[29.4809,47.3383],[29.5011,47.3398],[29.521,47.3389],[29.5399,47.3342],[29.5566,47.324],[29.5701,47.3068],[29.5793,47.2836],[29.5802,47.2604],[29.5687,47.2431],[29.544,47.2343],[29.5404,47.2125],[29.5506,47.1602],[29.5448,47.1356],[29.5304,47.1237],[29.5087,47.1194],[29.4809,47.1175],[29.4786,47.1146],[29.4779,47.1115],[29.4787,47.1085],[29.4809,47.1052],[29.5115,47.066],[29.5201,47.0599],[29.531,47.066],[29.5397,47.0789],[29.5514,47.0902],[29.5702,47.0914],[29.5834,47.0852],[29.5949,47.0746],[29.6021,47.061],[29.603,47.0458],[29.5954,47.0321],[29.5834,47.0228],[29.5725,47.0118],[29.565,46.9745],[29.5606,46.9613],[29.5598,46.9588],[29.5587,46.9457],[29.5675,46.9347],[29.5732,46.9337],[29.5985,46.9354],[29.6076,46.932],[29.6233,46.9195],[29.6319,46.9144],[29.6481,46.9104],[29.6809,46.9086],[29.6962,46.9047],[29.7125,46.8934],[29.7358,46.8672],[29.7541,46.858],[29.7858,46.8547],[29.8152,46.8566],[29.8436,46.8541],[29.8722,46.8377],[29.8769,46.8308],[29.8849,46.8127],[29.8896,46.8072],[29.8985,46.8067],[29.9077,46.8109],[29.9174,46.814],[29.9282,46.8098],[29.9307,46.8031],[29.9305,46.7816],[29.9318,46.7724],[29.9357,46.7652],[29.9467,46.7507],[29.9511,46.7431],[29.9526,46.7247],[29.9444,46.6625],[29.9403,46.6508],[29.9354,46.6419],[29.9319,46.6324],[29.9313,46.6192],[29.9349,46.6088],[29.9474,46.5883],[29.9497,46.5789],[29.9381,46.5573],[29.9161,46.5544],[29.8988,46.5531]]]]}}]}